id,name,tel,district,address,longitude,latitude
0,联华超市,021-62082769,静安区,乌鲁木齐北路170号,121.442102,31.222953999999998
1,联华超市(云皓店),18640022262,浦东新区,南汇新城临港大道雪绒花路云皓路金域澜湾小区门岗,121.922611,30.913003999999997
2,联华超市(柳营路店),,静安区,柳营路511号,121.46110300000001,31.266242
3,联华超市(人民路店),021-69690166,崇明区,城桥镇人民路5-15号(崇明区政府东50米),121.401152,31.622003000000003
4,联华超市(干巷店),021-57201076,金山区,干巷新溪街南145号,121.236595,30.827981
5,联华超市(枫泾店),021-37350259,金山区,枫泾镇新泾路185-187号,121.01522,30.88777
6,联华超市(六团店),021-38931343,浦东新区,川六公路1915-1917号,121.72977900000001,31.155506
7,联华超市(闵行店),021-64524031,闵行区,吴泾镇龙吴路5530弄39号,121.4678,31.044435999999997
8,联华超市(桃浦店),,普陀区,雪松路358号,121.35,31.2815
9,联华超市(绿杨店),13917955865,普陀区,绿杨路43号,121.3459,31.283896999999996
10,联华超市(真武店),021-66376793,普陀区,武威东路470-472号,121.40151000000002,31.276303000000002
11,联华超市(万里加盟店),021-56345177,普陀区,真金路250弄14-20号,121.405782,31.267847999999997
12,联华超市(贵都店),15021803808,闵行区,颛桥镇贵都路189号、191号A间,121.40323899999999,31.078009
13,联华超市(解放西路店),021-67180093,奉贤区,南桥镇解放西路627号,121.44296200000001,30.910377
14,联华超市(江桥店),021-59114654,嘉定区,江桥镇华江路39号,121.34483600000002,31.256358000000002
15,联华超市(春旺百货店),021-52386700,长宁区,安化路533号,121.41901399999999,31.215690000000002
16,联华超市,,普陀区,凯旋北路1600-8号,121.41230700000001,31.229508000000003
17,联华超市(安宁路850号店),15021020900,闵行区,安宁路850号一楼Q2摊位,121.41357099999999,31.020671999999998
18,联华超市,,闵行区,莘庄宝城路454号(莘朱路宝城路口),121.390753,31.109928000000004
19,联华超市,13564626512,浦东新区,周邓公路南50米,121.64158,31.120207
20,联华超市,13052005012,浦东新区,锦绣路2466弄60号,121.541226,31.183469
21,联华超市(浦东南路店),,浦东新区,浦东南路4407号一层,121.500247,31.181657
22,联华超市,,静安区,平顺路182号,121.45228700000001,31.311754999999998
23,联华超市,,松江区,九亭大街387号,121.33223000000001,31.130245000000002
24,联华超市(万航店),021-52550070,长宁区,万航渡路1467号,121.420429,31.224522999999998
25,联华超市(江苏路店),13918601738,长宁区,长宁路396弄19-67号,121.425195,31.223959000000004
26,联华超市(长宁路),15857855808,静安区,长宁路217-1,121.428173,31.225386
27,联华超市(中山桥店),,普陀区,内环高架路与内环高架路出口交叉口东50米,121.476499,31.271129
28,联华超市,,杨浦区,黄兴路18号附近,121.532928,31.270383000000002
29,联华超市(秀沿店),021-68070496,浦东新区,秀沿路2505,121.602272,31.137669
30,联华超市(莲溪店),021-68632082,浦东新区,莲园路与莲溪路交叉口旁,121.560392,31.186031
31,联华超市(川环店),,浦东新区,川沙新镇南桥路438号,121.703028,31.190782000000002
32,联华超市(新锦绣店),021-50675357,浦东新区,梅花路251号,121.543025,31.208686
33,联华超市(环桥路),18217294679,浦东新区,康桥镇环桥路1143号一层,121.60442900000001,31.136232
34,联华超市(川沙店),13681826992,浦东新区,川沙路4825号地下一层号7-2室,121.69811999999999,31.19525
35,联华超市(金杨店),021-50500147,浦东新区,金杨路778号,121.58358100000001,31.253682
36,联华超市(千星店),,浦东新区,华星路348-358号,121.764423,31.118695000000002
37,联华超市(大学城四期店),,松江区,大学城文汇路300弄38号楼,121.220868,31.049634
38,联华超市(恒锦店),,静安区,蒙古路35号地下1、1层,121.47019499999999,31.243496
39,联华超市(广福店),4001679998,黄浦区,江西中路131号,121.487486,31.234068
40,联华超市(君庭店),13361811466,嘉定区,安亭镇荣轩路55号、57号,121.164061,31.294311999999998
41,联华超市(凤凰街店),021-56851339,崇明区,凤凰街198号,121.688084,31.387307
42,联华超市(周泾路店),,闵行区,纪王镇(近周泾路),121.264918,31.241478999999998
43,联华超市(妙栏店),021-58956520,浦东新区,妙境路758号一层103室,121.6919,31.186807
44,联华超市(崧雅店),021-39289231,青浦区,夏家宅路与崧雅路交叉口西北50米,121.15344099999999,31.164668
45,联华超市(望钱店),,奉贤区,南桥光明望钱路278号,121.504129,30.909428000000002
46,联华超市,,浦东新区,晨阳路199号附近,121.753023,31.176270000000002
47,联华超市(市台路店),021-36161700,宝山区,市台路502-506号,121.350187,31.316084999999998
48,联华超市(陈镇店),,崇明区,弘道中路与陈彷公路交叉口东南100米,121.806468,31.499209999999998
49,联华超市(桥梅店),15720855199,杨浦区,临青路与锦州湾路交叉口西100米,121.539437,31.267256
50,联华超市,,闵行区,东川路500号,121.45149599999999,31.033434999999997
51,联华超市,,松江区,沪亭北路607弄31号,121.31508999999998,31.146140000000003
52,联华超市,021-52795555,普陀区,桃浦路810号,121.387221,31.260097
53,联华超市(三彩路店),021-50181120,浦东新区,三林镇三彩路51-53号,121.497896,31.126405
54,联华超市(特惠店),021-68683961,浦东新区,临沂路161号(近浦三路),121.512075,31.194433
55,联华超市(张杨店),021-55087569,虹口区,天宝路466弄8号102A虹关路342号,121.496693,31.265926
56,联华超市(铭申店),021-50682868,浦东新区,张杨路1685号(近民生路),121.544774,31.236617
57,联华超市(马陆店),021-59156565,嘉定区,马陆镇沪宜公路2208号,121.28418300000001,31.332063
58,联华超市(1号口),15001722218,浦东新区,金高路510号,121.610396,31.289895
59,联华超市(濠峰店),,浦东新区,高行镇金高路503号,121.61073200000001,31.290457
60,联华超市(高设店)(装修中),15001722218,浦东新区,高设路177-179号一楼,121.62224599999999,31.290753999999996
61,联华超市(慧芝湖店),021-56352056,静安区,平型关路1018号B1层,121.45761100000001,31.280009999999997
62,联华超市(真川店),18817989195,普陀区,梅川路1249号,121.383482,31.242192
63,联华超市(秀沿路),,浦东新区,周浦镇秀沿西路218弄18-2(中国电信信息园对面),121.535643,31.12777
64,联华超市(好日子大家园D区西南),13916400528,宝山区,菊太路1403号,121.353549,31.346193
65,联华超市(合作店),021-39606000,崇明区,合作公路1285临(崇明县庙镇人民医院西南),121.365371,31.739836999999998
66,联华超市(文苑店),13661699359,虹口区,车站北路707号,121.466734,31.297031
67,联华超市(香苑店),021-68365039,浦东新区,胜利路59、61号,121.686854,31.243506
68,联华超市(崧漪一路),,青浦区,崧漪一路与秀涓路交叉口西南50米,121.153951,31.140746999999998
69,联华超市(礼泉路),,普陀区,礼泉路712号一层,121.407467,31.254138
70,联华超市(成山店),021-38830414,浦东新区,成山路167号(近上南路),121.49313000000001,31.17127
71,联华超市(碧海店),021-50691578,浦东新区,浙桥路277号105室,121.600645,31.252029999999998
72,联华超市(良华店),021-54085885,徐汇区,宛平南路487号底层101室,121.448524,31.189525
73,联华超市(张虹路店),021-54019127,闵行区,张虹路129-3号附近,121.412352,31.192755
74,联华超市(夏朵园东南),,闵行区,银春路1955弄137号,121.393583,31.023916999999997
75,联华超市(旭祥店),,浦东新区,川周公路4302-4304号,121.581544,31.121119
76,联华超市(7号),13671688869,浦东新区,川周公路2832号,121.617475,31.142985999999997
77,联华超市(环桥店),021-68070496,浦东新区,环桥路1480号,121.60294499999999,31.141596000000003
78,联华超市(瑞金医院店),17301701626,黄浦区,瑞金二路与绍兴路交叉口东南100米,121.466182,31.210354
79,联华超市(莲花店),021-34130337,闵行区,虹桥镇莲花路9号布丁酒店旁边,121.404156,31.139120000000002
80,联华超市(怒江路店),13795342964,普陀区,金沙江路788号201单元,121.398628,31.232255
81,联华超市(上海御桥店),021-68932675,浦东新区,沪南路2420号百联东郊购物中心B1,121.563938,31.154626
82,联华超市(奎照路店),18621192270,虹口区,奎照路761-763号,121.47083300000001,31.300425
83,联华超市(鹤望路店),,嘉定区,鹤望路455-459号,121.323699,31.244706
84,联华超市,15221637339,浦东新区,金高路1085号,121.610171,31.281323999999998
85,联华超市(川环南路店),021-58362567,浦东新区,川沙新镇绣川路1111号绿海家园南门,121.70850300000001,31.186590999999996
86,联华超市(上南店),18217294247,浦东新区,耀华路528号,121.48191499999999,31.171965999999998
87,联华超市,021-66517266,静安区,彭浦镇场中路3258号,121.433783,31.303738
88,联华超市(清峪路店),13758908584,普陀区,清峪路608-612号,121.36626000000001,31.242337
89,联华超市(东方商厦店),021-69711693,青浦区,公园路700号东方商厦地下一楼,121.112279,31.14847
90,联华超市,13341944409,闵行区,浦江镇沈杜公路4239号,121.51428700000001,31.060124
91,联华超市(光明路店),021-38860002,浦东新区,高东光明路835号,121.62591100000002,31.325377000000003
92,联华超市(隆德路店),021-52353371,普陀区,隆德路157-159,121.42128100000001,31.229601000000002
93,联华超市,13818557173,静安区,平陆路298-308号101室,121.44716299999999,31.284583
94,联华超市,,浦东新区,园一路与园恒路交叉口北100米,121.630096,31.316343
95,联华超市(宜君店),021-56054557,普陀区,宜君路与黄陵路交叉口西北50米,121.42806200000001,31.263919
96,联华超市,,杨浦区,兰州路与昆明路交叉口西南100米,121.525782,31.268182
97,联华超市(水丰店),021-35090451,杨浦区,控江路658号(长白新村),121.54073799999999,31.285151000000003
98,联华超市(丰庄路店),13120976558,嘉定区,丰庄路409号,121.364174,31.248358000000003
99,联华超市(青浦新桥店),,青浦区,新桥路675、677、679号,121.10439299999999,31.213221
100,联华超市(康业路店),13482386222,青浦区,康业路888弄28-2号,121.059398,31.085256
101,联华超市(巍广店),13564446481,松江区,环城路878号,121.24724199999999,31.012357
102,联华超市(乐都路118弄小区东南),021-57709304,松江区,乐都路108-110号,121.23789099999999,31.013853000000005
103,联华超市(庙前街店),021-57723938,松江区,松汇中路520-524号,121.233737,31.004944000000002
104,联华超市(欧阳店),021-63062657,虹口区,欧阳路363号,121.487769,31.270353000000004
105,联华超市,021-64493880,闵行区,虹桥镇青杉路286号,121.36358,31.176109999999998
106,联华超市(万科店),021-64050920,闵行区,新虹街道申长路1313号1层,121.313077,31.203530999999998
107,联华超市(沪亭路),15801882445,松江区,沪亭路301号,121.3255,31.13308
108,联华超市,021-57710653,松江区,九亭朗亭路601号,121.29401100000001,31.149009000000003
109,联华超市(环镇店),021-66620241,宝山区,环镇北路521、527,121.40623300000001,31.307977
110,联华超市(新港二店),021-38190000,浦东新区,新府路与新欣东路交叉口西50米,121.87239299999999,30.981984999999998
111,联华超市(友谊店),021-56560733,宝山区,友谊路街道团结路4号,121.48568,31.40455
112,联华超市(东林路店),021-56607348,宝山区,友谊路46-3号,121.488529,31.406894
113,联华超市(友谊路店),021-56602906,宝山区,友谊路164号,121.48133899999999,31.404153000000004
114,联华超市(东林路店),021-56607348,宝山区,东林路454号1层,121.49130900000002,31.409784000000002
115,联华超市,13306891950,嘉定区,博园路8175号104室(茂泉路与博园路交口旁),121.157777,31.278982
116,联华超市(闸航路店),021-34790026,闵行区,浦江镇闸航路2621号,121.533955,31.019389
117,联华超市(名都店),,闵行区,莘庄镇名都路36弄14号,121.390799,31.106583
118,华联超市(莘朱路店),021-52965866,闵行区,莘朱路452号(莘朱路口东北侧宝城路莘朱路路口),121.39106299999999,31.110426
119,联华超市(百林店),021-54158895,闵行区,莘庄镇都市路4690号,121.39209199999999,31.102484000000004
120,联华超市,,宝山区,牡丹江路216号吴淞中心医院门口,121.496389,31.378266999999997
121,联华超市(景谷店),021-34050317,闵行区,景谷路162-166号,121.399474,31.013029
122,联华超市,18301898997,浦东新区,1-2000弄孙桥路299号-2,121.630925,31.180859
123,联华超市,,浦东新区,莱阳路1470号,121.58418799999998,31.293994
124,联华超市(凉城二店),021-55899251,虹口区,凉城路481号,121.47017,31.289209999999997
125,联华超市(浦驰路二店),18721115761,闵行区,浦驰路293号(江园路与浦驰路交口北行30米路西),121.50193200000001,31.076302000000002
126,联华超市,,宝山区,淞南镇长江南路651号,121.48075800000001,31.338906
127,联华超市(丁香店),021-52550105,长宁区,华山路800弄10号(镇宁路口),121.43880800000001,31.214540000000003
128,联华超市(海潮店),,黄浦区,陆家浜路468弄30号近海潮路,121.496746,31.210853000000004
129,联华超市(禹州店),021-51978252,浦东新区,金桥镇金港路333号B区中B16,121.612648,31.254801
130,联华超市,,浦东新区,峨山路607号,121.52226399999999,31.214465
131,联华超市(康茂店),,浦东新区,康桥路1659号,121.584694,31.150612
132,联华超市(新雅东路店),,浦东新区,唐镇新雅东路29号,121.686858,31.237226
133,联华超市(金月店),13818887877,浦东新区,新园路128弄1号地下1层,121.630175,31.317784999999997
134,联华超市(公利医院店),021-50931089,浦东新区,栖山路与苗圃路交叉口北100米,121.546529,31.243428
135,联华超市(金沙江路店),13795342964,普陀区,金沙江路788号201单元,121.398628,31.232255
136,联华超市,,松江区,九亭大街1156,121.31318799999998,31.126908
137,联华超市(呈汇店),,松江区,影佳路123弄,121.31636200000001,31.007224
138,联华超市(九亭店),021-57652976,松江区,九亭镇九亭大街504号,121.327793,31.128505999999998
139,联华超市(建国西店),,徐汇区,嘉善路453号,121.46042800000001,31.2056
140,联华超市(华泾店),,徐汇区,华泾镇望月路890号,121.460876,31.117442999999998
141,联华超市(辉平店),18501775272,杨浦区,武川路75弄55号101室,121.49196299999998,31.301694
142,联华超市(虎山店),021-35010957,杨浦区,打虎山路74-2号,121.508375,31.272743
143,联华超市,,浦东新区,建中路242弄159号,121.61248,31.203073999999997
144,联华超市(虹颂店),17701679785,长宁区,虹桥路1023号,121.413528,31.196556
145,联华超市(南丹店),021-54591828,徐汇区,南丹路331号(近1号线上海体育馆站),121.430227,31.190232
146,联华超市(南丹店),,徐汇区,南丹路301号,121.430122,31.18964
147,联华超市(祖冲之路店),021-50372178,浦东新区,祖冲之路2305号天之骄子生活新天地1层,121.628476,31.21272
148,联华超市(金家宅),,浦东新区,川周公路4009-3号,121.587056,31.125977000000002
149,联华超市(中山北路店),,静安区,中山北路751号,121.458754,31.259896
150,联华超市(平城路店),18121323910,嘉定区,平城路2283号,121.22106000000001,31.381159999999998
151,联华超市(泾南店),13818505003,浦东新区,灵山路755号1层,121.54946000000001,31.231495000000002
152,联华超市,,浦东新区,康沈路1870弄69,121.57849499999999,31.111444
153,联华超市(仙霞店),,长宁区,仙霞西路88号百联西郊购物中心1层,121.370318,31.208609999999997
154,联华超市(上南路店),,浦东新区,康桥镇上南路7812号,121.57141000000001,31.118038000000002
155,联华超市(金山店),021-57952603,金山区,石化地区新城路332号,121.340477,30.712878999999997
156,联华超市(高迪店),13524187588,浦东新区,青桐路618弄14号,121.620048,31.214015000000003
157,联华超市(景谷店),021-34050317,闵行区,景谷中路635-07号,121.406345,31.014393
158,联华超市(龙汇店),021-37570887,浦东新区,龙汇路87号,121.549852,31.198633
159,联华超市(锦秋新天地店),,宝山区,锦秋路829号锦秋新天地1层,121.388158,31.320916999999998
160,联华超市(栖霞店),021-58929935,浦东新区,栖霞路37号-2,121.514798,31.235654999999998
161,联华超市(老沪闵路店),021-52265885,闵行区,梅陇镇老沪闵路1351号,121.434526,31.112288
162,联华超市(楼圆店),021-64236078,徐汇区,老沪闵路706弄19号,121.4309,31.144817
163,联华超市(保屯店),021-53590023,黄浦区,保屯路100-120号,121.490257,31.205015000000003
164,联华超市(东余杭店),021-65414244,虹口区,东余杭路926号,121.50424199999999,31.256966
165,联华超市(友东路),,闵行区,友东路358号108,121.35337,31.126362
166,联华超市(武威东路),15921885889,普陀区,桃浦镇武威东路825号,121.388742,31.276344
167,联华超市(青湖东路),,青浦区,青湖东路899,121.146739,31.145834000000004
168,联华超市(仙霞路店),021-62595972,长宁区,仙霞路463-1号,121.39211999999999,31.205910999999997
169,联华超市(虹古店),021-32080017,长宁区,安龙路833号,121.387193,31.208369
170,联华超市(遵义店),15851411458,长宁区,中山西路750号,121.41126399999999,31.207735999999997
171,联华超市(平顺路店),,静安区,共和新路5012号绿地集团11层,121.444767,31.321806
172,联华超市(长岛路店),021-60930525,浦东新区,长岛路1156-1158号金桥翡翠坊B1层,121.592353,31.260628000000004
173,联华超市(海潮路店),021-63057219,黄浦区,海潮路106号,121.49803500000002,31.210310999999997
174,联华超市(曙建店),13395891168,闵行区,曙建路65号-5室,121.42125,31.09282
175,联华超市(俱进店),,浦东新区,俱进路427号,121.612001,31.300586
176,联华超市(陆家嘴店),13621675140,浦东新区,浦东大道580号3号,121.52175,31.24039
177,联华超市(益江店),,浦东新区,益江路238号,121.63107,31.19943
178,联华超市(城中园酒店东南),021-50500147,浦东新区,金桥路1480-13号,121.58811000000001,31.250687
179,联华超市(隽苑店),021-69735995,青浦区,朱家角镇马家桥路283-285号,121.041296,31.119025
180,联华超市(上川店),,浦东新区,上川路1688-1690号,121.66878600000001,31.278333
181,联华超市(新浦航店),,闵行区,浦江镇浦航路728弄1号,121.54096899999999,31.042968
182,联华超市(金葵店),,浦东新区,金葵路1051-1057,121.626348,31.239057
183,联华超市(申浦店),021-50690653,宝山区,申浦路269、271、275号,121.413316,31.424934999999998
184,联华超市(铁峰店),021-66796189,宝山区,锦友路2276号附近,121.45215,31.400833000000002
185,联华超市,15921821258,宝山区,南蕴藻路123号,121.43610100000001,31.337612
186,联华超市,,宝山区,顾村镇陆翔路1018弄龙湖北城天街2号,121.359721,31.361565999999996
187,联华超市(大康路店),021-66620150,宝山区,大康路865号,121.42343600000001,31.329239
188,联华超市(喜达店),021-69025238,嘉定区,乐秀路485号,121.314788,31.271209000000002
189,联华超市(海波路店),,嘉定区,海波路601-627号,121.33591200000001,31.268219000000002
190,联华超市,,金山区,亭林镇寺平北路98号(大慈路路口),121.306983,30.891333000000003
191,联华超市(大宁店),021-56720599,静安区,大宁路612号,121.44892,31.273020000000002
192,联华超市,,闵行区,浦江镇召楼路2004号,121.539578,31.055267999999998
193,联华超市(疏影路二店),18621863386,闵行区,莘庄镇疏影路1072号,121.36079,31.11843
194,联华超市(由由三邨南),021-58754235,浦东新区,严镇路253号-44,121.53026899999999,31.191833000000003
195,联华超市(张建店),021-50198678,浦东新区,孙桥孙建路866号,121.640403,31.18285
196,联华超市,,浦东新区,民春路,121.66403000000001,31.274641
197,联华超市(金桥路店),,浦东新区,金桥路2690弄48号,121.60250500000001,31.231523
198,联华超市(晶平店),13777549003,普陀区,北石路500弄98-100号,121.393772,31.24806
199,联华超市,,松江区,涞坊路241号,121.319299,31.15427
200,联华超市,021-68483943,浦东新区,高东镇赵高公路1728号,121.640459,31.296802000000003
201,联华超市(锦宁店),021-65208988,长宁区,长宁支路176号底层,121.42611000000001,31.226598
202,联华超市(环庆中路),,浦东新区,庆利路与环庆中路交叉口东南50米,121.724989,31.233938000000002
203,联华超市(青湖店),021-69735133,青浦区,华青南路455-457号,121.13389,31.145506
204,联华超市(剑川店),,闵行区,东川路500号华东师范大学闵行校区学生公寓(河西餐厅对面),121.44825700000001,31.035069
205,联华超市(尚旺店),,宝山区,共康路755-757号,121.43076299999998,31.320907000000002
206,联华超市(华漕店),,闵行区,纪翟路888号,121.28587900000001,31.213631
207,联华超市(金海公路店),,奉贤区,南桥镇金海公路2588号C幢底层5-12号,121.501791,30.895745
208,联华超市(陈华港小区西南),021-59781508,青浦区,赵重公路2778弄56-60号,121.18786599999999,31.194319
209,联华超市(虹桥店),,徐汇区,虹桥路772弄1-1号,121.424645,31.194641999999998
210,联华超市(新苑店),021-63161400,黄浦区,西藏南路1130号,121.485823,31.210221999999998
211,联华超市(烨彪店),,奉贤区,海湾旅游区人民塘路476弄37号,121.526648,30.832824
212,联华超市(唐城店),021-57138262,奉贤区,洪庙路188号,121.692846,30.927103999999996
213,联华超市(体育馆店),021-54590451,徐汇区,漕东路18号,121.4393,31.173609999999996
214,联华超市(沪泰店),021-66610042,静安区,柳营路1035号,121.450167,31.260991999999998
215,联华超市(长阳新苑店),021-33810117,杨浦区,长阳路1326号(近齐齐哈尔路),121.529095,31.266797999999998
216,联华超市(华灵店),021-66346493,宝山区,华灵路560-1号,121.42271299999999,31.275128999999996
217,联华超市(宜山路),021-33687198,徐汇区,田林十村43号,121.41993899999999,31.173621
218,联华超市(南亭公路店),021-57180693,奉贤区,南桥镇南亭公路181弄36-42号,121.45097,30.90727
219,联华超市(继业店),021-58912760,浦东新区,沪南路630号(近北蔡大街),121.55281299999999,31.187876
220,联华超市(旭乐店),18018642927,青浦区,胜利路225号,121.104426,31.157643
221,联华超市(电台店),,宝山区,电台路599弄47号,121.392255,31.356445
222,联华超市(裕丰店),021-39120023,嘉定区,裕丰路258号,121.30684,31.297659999999997
223,联华超市(惠亚店),021-69171896,嘉定区,南翔镇惠亚路611号,121.288255,31.310781
224,联华超市(创新西路店),15900606283,浦东新区,创新西路349-355号,121.651246,31.200976
225,联华超市(中佳店),021-59121749,嘉定区,南翔镇中佳路32号1层,121.320927,31.29634
226,联华超市(眉州路店),021-65898322,杨浦区,上海平凉路街道眉州路120号,121.537621,31.258395
227,联华超市(盛大花园),021-54073098,徐汇区,龙华路2518号,121.453483,31.178423
228,联华超市(菊联路店),021-36312506,宝山区,菊联路209、211、213号,121.36421999999999,31.346829999999997
229,联华超市(陶家塘),021-60757520,闵行区,芦恒路,121.49486399999999,31.115213
230,联华超市(轿行店),,奉贤区,南庄路134号,121.46555900000001,30.896628000000003
231,联华超市(欣跃店),021-68902787,浦东新区,和炯路207-209号,121.504143,31.121640000000003
232,联华超市(临江店),021-56104878,宝山区,东林路240号(近密山路),121.49345600000001,31.405381
233,联华超市(戬浜店),021-59516157,嘉定区,嘉定马陆镇大治路447号,121.299015,31.376306
234,联华超市(沪太公路辅路),021-66022068,宝山区,沪太公路5785号1层,121.369212,31.372269
235,联华超市(祥仁店),021-59242866,青浦区,朱家角镇祥凝浜路424号淀湖新村1号楼1层,121.060119,31.109090000000002
236,联华超市(临二店),021-56787140,宝山区,友谊支路307-308号,121.486236,31.410221999999997
237,联华超市(华理店),,奉贤区,海湾路999号,121.505602,30.832638
238,联华超市(江南清水苑东),,崇明区,长兴镇长兴合作路831号106室,121.777773,31.349241999999997
239,联华超市(莘谭店),,闵行区,莘谭路408-1号,121.37047199999999,31.107609000000004
240,联华超市(凯翔店),021-64081098,徐汇区,漕东支路1之5-7号凯翔商务中心,121.438392,31.169529999999998
241,联华超市(中科店),13917603474,浦东新区,中科路2601-2603号,121.63583100000001,31.190107
242,联华超市(育秀路店),021-57190615,奉贤区,育秀路211号,121.465874,30.908694
243,联华超市(桂巷店),021-32020148,普陀区,杨柳青路331号,121.401106,31.237253999999997
244,联华超市(陆家嘴软件园店),021-50896556,浦东新区,峨山路91弄98号,121.5319,31.21733
245,联华超市(中远店),13611657018,普陀区,中潭路100弄252号,121.44723400000001,31.253096999999997
246,联华超市(叶红店),18021001096,浦东新区,航头镇鹤驰路198号2楼,121.591572,31.079521000000003
247,联华超市(蒲汇路店),021-57634008,松江区,九亭蒲汇路135弄2号,121.330003,31.13865
248,联华超市(普光路),021-59702776,青浦区,香花桥镇普光路25号,121.13283999999999,31.18566
249,联华超市(客盈店),021-35090423,杨浦区,翔殷路313-315号,121.54041399999998,31.307015999999997
250,联华超市(金高店),021-58658089,浦东新区,高行镇金高路388号15号,121.60938,31.292355
251,联华超市(佘山店),021-57659871,松江区,佘山镇桃源西路362弄79号西楼梯1-2号,121.179336,31.100628000000004
252,联华超市(永吉路店),021-35304570,杨浦区,永吉路9之12-13,121.531829,31.288355
253,联华超市(彭浦店),021-36060131,闸北区,阳曲路420号(近阳曲路),121.460301,31.313340000000004
254,联华超市(汇成店),021-34053411,徐汇区,百色路1139号,121.43446000000002,31.142909999999997
255,联华超市(云清店),,松江区,梅家浜路1500弄1-40号三湘四季花城财富广场1层,121.23028000000001,31.053167
256,联华超市(心亿店),021-67841353,松江区,九亭镇涞坊路698号1层,121.307268,31.149995
257,联华超市(朝勤路店),021-58977446,浦东新区,合庆镇王家车路768号,121.72228100000001,31.261101
258,联华超市(文涵路店),021-67846779,松江区,文涵路887-889号,121.185891,31.039882000000002
259,联华超市(华盈店),021-69734160,青浦区,盈港东路8300弄,121.139177,31.161538
260,联华超市(天马店),021-57665018,松江区,天新路180号,121.143179,31.069046000000004
261,联华超市(鹤韵店),13524664002,浦东新区,鹤韵路28号,121.59589799999999,31.075471000000004
262,联华超市(里仁店),021-58119975,浦东新区,年家浜路430号,121.573347,31.114403000000003
263,联华超市(南苑别墅北),18016073117,徐汇区,百色路855号(近龙川北路),121.440028,31.142365
264,联华超市(银翔路店),,嘉定区,众仁路495号101室,121.321937,31.291117
265,联华超市(沙庙店),021-68082621,浦东新区,沙庙村川南奉公路7689号1层,121.76823,30.963614
266,联华超市(高建路),,浦东新区,高建路17-27号,121.61884099999999,31.293157
267,联华超市(荣乐西路店),021-67812131,松江区,荣乐西路1635弄甲12号,121.19882700000001,31.015832
268,联华超市(千山店),021-55613534,杨浦区,殷行路880号,121.522807,31.329034999999998
269,联华超市(铁力店),,宝山区,盘古路927弄26号,121.46268,31.40186
270,联华超市(湄浦路店),021-56789840,宝山区,湄浦路280-288,121.463555,31.406133
271,联华超市(金亭公路),021-68103603,浦东新区,金亭公路601号、605号1层,121.76751999999999,31.112116999999998
272,联华超市(郏店村店),,青浦区,重固镇郏店村340号1层,121.185928,31.177244
273,联华超市(中港店),021-38050015,浦东新区,南港公路1660号,121.83996100000002,31.04055
274,联华超市(三民路店),021-33650111,奉贤区,庄行镇庄行新苑三民路577号,121.39063600000001,30.900790999999998
275,联华超市(浦东商场),13651858819,浦东新区,川沙路4825号浦东商场B1层,121.698081,31.195511
276,联华超市(建中店),021-50796528,浦东新区,建中路242弄159号,121.61248,31.203073999999997
277,联华超市(甘泉店),021-36050034,普陀区,延长西路630号,121.42950900000001,31.260009000000004
278,联华超市,,普陀区,真如镇街道芝川路46号,121.40398400000001,31.258446000000003
279,联华超市(汇腾路),,浦东新区,汇腾路4号401,121.654756,31.026659000000002
280,联华超市(翔殷店),021-35090423,杨浦区,翔殷路584号,121.533565,31.305839000000002
281,联华超市(锦顺店),021-62757243,长宁区,安顺路154号,121.41821000000002,31.201628999999997
282,联华超市(中原店),,杨浦区,殷行路300号,121.539855,31.328245000000003
283,联华超市(迎熏店),,浦东新区,惠南镇迎熏路1223号,121.76758600000001,31.034689
284,联华超市(金林店),021-68220930,浦东新区,航头路1043-1045号1层,121.595449,31.033285
285,联华超市(白玉店),021-32130025,普陀区,白玉路200-3,121.416422,31.234147999999998
286,联华超市(琪惠店),021-57622893,松江区,古楼公路1856弄2号,121.234025,31.103960999999998
287,联华超市(江学路店),021-67735543,松江区,江学路321弄22-24号,121.211501,31.027919
288,联华超市(正阳店),021-37521601,奉贤区,奉贤南桥育秀东路389号,121.474427,30.910998
289,联华超市(新沪店),021-66670334,宝山区,新沪路431-451号,121.419751,31.270613
290,联华超市(柘林泛Ｔ宪霸繁?,13817140319,奉贤区,柘林镇联业路853号,121.48808999999999,30.838553000000005
291,联华超市(绿波景园南),,松江区,沪松公路2972弄18、20号,121.271468,31.107419
292,联华超市(中心街店),021-37890118,松江区,松江镇新浜镇中心街69号,121.06696000000001,30.93275
293,联华超市(余姚路二店),021-62195312,静安区,延平路523,121.436383,31.235219
294,联华超市(国和店),021-65322700,杨浦区,国和路1049号-3楼,121.53088999999999,31.318064
295,联华超市(月亮河桂园东),,松江区,文涵路541-543号,121.186497,31.034499
296,联华超市(平顺路店),021-56915825,闸北区,共和新路4444号,121.448254,31.311913
297,联华超市(靖海店),021-38000027,浦东新区,拱极路2375-2377号,121.771305,31.052916999999997
298,联华超市(博居店),021-25012164,浦东新区,金杨新村街道博山东路451号1层,121.56853500000001,31.252986
299,联华超市(凉城店),,虹口区,车站北路518号,121.47287,31.29727
300,联华超市(航北路店),021-54391955,闵行区,航北路28弄36号(航北路230号),121.35378999999999,31.17295
301,联华超市(香贵店),021-52716591,普陀区,金沙江路99号1层,121.407201,31.231481
302,联华超市(博威祥源福邸东北),,嘉定区,南翔镇金通路1712、1716号,121.32292,31.286809
303,联华超市(花木店),021-38764059,浦东新区,梅花路611号,121.54971,31.209033
304,联华超市(塘东路),,浦东新区,蔡路镇东川公路7858号1层,121.72798200000001,31.213314
305,联华超市(佳依店),,青浦区,外青松公路6666弄13号102、103室,121.12504299999999,31.140232
306,联华超市(梓康路店),021-68066130,浦东新区,梓康路285号,121.565671,31.121854
307,联华超市(海盈店),021-59202369,青浦区,海盈路205号,121.108989,31.150087
308,联华超市(花山店),021-54992446,闵行区,梅陇镇罗锦路853号,121.398504,31.122355
309,联华超市(王府公馆南),,松江区,思贤路1855弄-60号60-1、64,121.200673,31.023414000000002
310,联华超市(长江西路店),021-33715362,宝山区,长江西路1605-1号,121.449898,31.335185
311,联华超市(四墩店),021-68272135,浦东新区,川南奉公路6628号,121.774898,31.011468
312,联华超市(前卫农场),021-33802202,崇明县,长兴岛潘圆公路1319号,121.72363600000001,31.388762
313,联华超市(新二店),021-36140154,宝山区,新二路淞南九村142号,121.47507,31.334909999999997
314,联华超市(新农店),021-57340291,金山区,新农镇亭枫公路2857号,121.20546100000001,30.893246
315,联华超市(恒顺路店),021-57273058,金山区,恒顺路61、63号,121.340523,30.848871999999997
316,联华超市(柳梁路店),13301659379,嘉定区,柳梁路62-64号,121.228504,31.377833000000003
317,联华超市(三鲁公路),,闵行区,三鲁公路4579,121.515084,31.099915999999997
318,联华超市(普庆店),021-58598131,浦东新区,川沙新镇普庆路237-251号,121.72291100000001,31.155232
319,联华超市(宾阳店),021-34140224,徐汇区,宾阳路54号,121.43755300000001,31.163982
320,联华超市(拱乐店),,浦东新区,拱乐路890-898号,121.76655500000001,31.063409999999998
321,联华超市(恒飞路),021-39106159,嘉定区,恒飞路466号,121.161698,31.365674
322,联华超市(浙桥店),021-50691578,浦东新区,浙桥路277号111-112室,121.600645,31.252029999999998
323,联华超市(明珠路店),021-69763900,青浦区,徐泾镇明珠路305号,121.26956200000001,31.169936
324,联华超市(白银路店),021-59101559,嘉定区,白银路1453-1451号,121.240824,31.344744
325,联华超市(联明店),,闵行区,七宝镇联明路62号,121.352516,31.147702000000002
326,联华超市(金丰路店),021-62217680,闵行区,金丰路425号,121.28368200000001,31.204342999999998
327,联华超市(外青松公路店),021-59800598,青浦区,外青松公路6048弄21号,121.12266499999998,31.155575
328,联华超市(紫欣店),021-52633215,闵行区,北翟路5088弄1-2号,121.297389,31.205677
329,联华超市(操场街店),021-38723115,浦东新区,川沙操场街路36-2号,121.703906,31.197916999999997
330,联华超市(青赵店),021-69222040,青浦区,青赵公路829-831号,121.101772,31.151206
331,联华超市(江东店),021-58647357,浦东新区,高桥镇江东路119号,121.50958500000002,31.372491999999998
332,联华超市(广延路店),13061732890,闸北区,广延路552-562,121.454935,31.280749
333,联华超市(城中店),021-59852528,青浦区,城中西路319-323号,121.104469,31.147121999999996
334,联华超市(罗锦路店),021-54299298,闵行区,罗锦路581号,121.403574,31.121451
335,联华超市(云风店),15857865544,松江区,方松街道文涵路74-80号,121.188992,31.025275
336,联华超市(翔川店),15618368966,浦东新区,川沙路5398号百联川沙购物中心B1楼,121.69798,31.185236
337,联华超市(连波店),15800867245,浦东新区,芳草路88号,121.552484,31.192476
338,联华超市(三林新村店),13816007222,浦东新区,永泰路132号,121.505124,31.135365999999998
339,联华超市(果园店),021-38280012,浦东新区,芦云路18号,121.853485,30.875233
340,联华超市(王桥路店),,浦东新区,利川路481弄1号1层,121.684224,31.204395
341,联华超市(银都路店),021-54822711,闵行区,银都路672号(近虹梅南路),121.43916399999999,31.104946999999996
342,联华超市(华夏路店),021-50966126,浦东新区,华夏东路1482号,121.67879599999999,31.196799
343,联华超市(报春店),021-54132979,闵行区,报春路630号-5号14室1层,121.38283500000001,31.122438
344,联华超市,18616288491,浦东新区,云夏路与彩云路交叉口东150米,121.802325,30.898721000000002
345,联华超市(曹八店),021-52510140,普陀区,南石一路65号,121.4056,31.245966999999997
346,联华超市(西江湾店),021-56487652,虹口区,西江湾路122号1幢-2,121.47856999999999,31.267190000000003
347,联华超市(锦秋店),021-66740504,宝山区,锦秋路699弄之69-70号,121.38911999999999,31.324012
348,联华超市(虹中店),021-54580177,闵行区,虹中路436弄21-23号,121.385301,31.179483
349,联华超市(新寺店),021-57490550,奉贤区,新寺社区新林路2247号底层,121.460027,30.860814
350,联华超市(古龙路店),021-34712695,闵行区,万源路916万源城乐斯生活会馆1层,121.394035,31.148388
351,联华超市(东门店),021-38000517,浦东新区,惠南镇车站路26号,121.763589,31.045697999999998
352,联华超市(南明店),021-57560082,奉贤区,青村镇北唐小区南明路112-128号,121.57621200000001,30.928122
353,联华超市(高岛路店),18939869662,崇明县,城桥镇西门路1301号,121.411676,31.642763000000002
354,联华超市(昌鑫时代绿园北),,宝山区,虎林路109-111号,121.460008,31.328985999999997
355,联华超市(长城店),021-65055362,杨浦区,闸殷路72号-1,121.52896299999999,31.335741
356,联华超市(联西村店),021-69595520,嘉定区,黄渡联西村联西路47号,121.25098799999999,31.268243
357,联华超市(家园便利),021-62602770,金山区,南大街27-29号,121.011472,30.884168
358,联华超市(联乾小区东),021-66620204,宝山区,南大路139号,121.40236200000001,31.299512
359,联华超市(阳光苑西南),021-69178775,嘉定区,浏翔路1199弄188号静唐路,121.323101,31.315199
360,联华超市(芦潮港店),021-38079000,浦东新区,新城镇芦潮港农场电影院(五七农场潮华路6号),121.80384699999999,30.861434999999997
361,联华超市(园洲店),021-68483879,浦东新区,园洲路97号,121.63478300000001,31.315496000000003
362,联华超市(昭化路店),021-62129828,长宁区,昭化路122-126号,121.42556299999998,31.211774
363,联华超市(北艾店),021-50868162,浦东新区,北艾路891号(近下南路),121.537278,31.183407
364,联华超市(丰迅店),021-52171279,长宁区,泉口路113号(泉口路与剑河路交叉东150米路南),121.371424,31.212161
365,联华超市(美艾路店),021-66877807,宝山区,美艾路218-224号,121.361848,31.393790999999997
366,联华超市,021-58375892,浦东新区,华夏二路405-411号,121.68506799999999,31.191346000000003
367,联华超市(紫风店),021-37310005,金山区,朱泾镇秀州街536号,121.16928,30.90274
368,联华超市(剑瓷店),,杨浦区,民星路351号,121.539905,31.311384999999998
369,联华超市(人民东路),021-68020898,浦东新区,惠南镇人民东路2528号,121.768794,31.049611
370,联华超市(碧江路店),,闵行区,碧江路310号1-2,121.402294,31.007121
371,联华超市,021-33719332,宝山区,顾北东路507号1层,121.407452,31.357530999999998
372,联华超市(唐镇店),021-58965659,浦东新区,唐镇唐陆路3244号,121.655275,31.209512
373,联华超市(吴淞煤气厂桥),,宝山区,长江路368-1,121.494689,31.350571999999996
374,联华超市(顾太路店),,宝山区,顾太路350号,121.397501,31.347739
375,联华超市(奉浦店),021-37198725,奉贤区,南桥镇环城东路585号,121.461611,30.937278999999997
376,联华超市(祖骏店),,松江区,方松街道谷阳北路1500号102室,121.234651,31.033744
377,联华超市(西渡店),021-57154770,奉贤区,西渡镇沪杭公路76号,121.430328,30.993614
378,联华超市(长富店),021-56458182,宝山区,长逸路15号西区1楼101a号,121.494129,31.339109999999998
379,联华超市(菊盛路店),021-56146230,宝山区,菊盛路882号2层,121.36925,31.361121
380,联华超市(金平店),021-54755137,闵行区,金平路2325号,121.41181599999999,31.011089000000002
381,联华超市(碧秀路),,闵行区,水清南路20号-5,121.38453700000001,31.112878000000002
382,联华超市(昌里店),15000954170,浦东新区,昌里东路326号(近东明路),121.511356,31.176917
383,联华超市(永新),,闵行区,闸航路4327附近,121.501697,31.020576000000002
384,联华超市(金园店),021-39553387,嘉定区,金园一路1611号1层,121.31509799999999,31.237738
385,联华超市(许浦店),021-62387998,长宁区,天山西路262-264号,121.37001599999999,31.217565999999998
386,联华超市(情谊店),021-58568616,浦东新区,新德路604弄11号-16号,121.691626,31.19657
387,联华超市(传梅店),021-36310951,宝山区,顾村镇顾北路508-510号底层,121.39006200000001,31.351408000000003
388,联华超市(罗秀店),021-54631012,徐汇区,罗秀路776-6号,121.434574,31.131643
389,联华超市,021-53946788,徐汇区,清真路26号附近,121.45953999999999,31.199621999999998
390,联华超市(长江店),021-56147352,宝山区,通南路48号1层,121.477061,31.337978000000003
391,联华超市(联东店),021-38420178,浦东新区,博兴路1557号,121.601249,31.273101
392,联华超市(紫薇店),,浦东新区,紫薇路713号1-2层,121.623405,31.206813
393,联华超市(莱阳路),021-58719548,浦东新区,五莲路258号,121.581189,31.274092
394,联华超市(枫阳店),,金山区,枫阳路139号,121.02373999999999,30.892981
395,联华超市(菊太路店),021-56182880,宝山区,菊太路1219号,121.35769499999999,31.347765000000003
396,联华超市(上虹东兰店),021-64983029,闵行区,莘庄镇疏影路756号,121.368224,31.120453
397,联华超市(宝水店),021-56496378,宝山区,水产西路213号1层,121.42861699999999,31.360668
398,联华超市(欣明店),021-66710086,宝山区,大场镇南陈路256号底层,121.397791,31.307928000000004
399,联华超市(长海店),021-35030345,杨浦区,长海路440号,121.52225800000001,31.309519
400,联华超市(立民店),,闵行区,浦江镇立民路260号,121.556223,31.105094
401,联华超市(红石路店),021-39903916,嘉定区,红石路725-727号,121.22542800000001,31.386577000000003
402,联华超市(新镇路店),021-34097363,闵行区,新镇路920号,121.36313,31.14988
403,联华超市(五四农场兴隆新村北),021-57162656,奉贤区,五四农场老场部场中路1580号,121.732726,30.879227
404,联华超市(光明),,浦东新区,宣桥镇三灶都市型工业园宣春路741号,121.71781000000001,31.083213
405,联华超市(六灶店),021-38160029,浦东新区,川沙新镇周祝公路2426号,121.700331,31.116556
406,联华超市(平安店),021-37554080,奉贤区,四团镇平安社区老四平公路1353号,121.73191899999999,30.89825
407,联华超市(润瑾店),,宝山区,杨桃路118号,121.441056,31.372778000000004
408,联华超市(金耀店),021-39531511,嘉定区,金耀南路348-350号,121.312179,31.238227000000002
409,联华超市(陈宝路),021-69153178,嘉定区,陈宝路537、541-543,121.32863799999998,31.356661
410,联华超市(康士店),,奉贤区,南桥镇光明优化路123号,121.510698,30.904407
411,联华超市(唐龙路),,浦东新区,吕三路与唐龙路交叉口西200米,121.641324,31.216435999999998
412,联华超市(海意店),,奉贤区,南桥镇肖塘路246、256号,121.434028,30.961767
413,联华超市(永亮店),021-50407899,浦东新区,花山路1050-1056号,121.582499,31.349851
414,联华超市(海思路),,奉贤区,海思路393号,121.51656899999999,30.832128000000004
415,联华超市(塔湾新村一区东),021-69238150,青浦区,青松路451号,121.117774,31.138168
416,联华超市(九华新园北),021-67106568,奉贤区,青浦工业园国顺路371号,121.459751,30.93253
417,联华超市(朱家桥店),021-59961129,嘉定区,朱桥镇(汇华小区1号楼),121.190605,31.409799
418,联华超市(峨嵋店),021-33010134,虹口区,峨嵋路389号,121.48966599999999,31.251624
419,联华超市,,浦东新区,人民东路2437弄49,121.778107,31.048163
420,联华超市(大境路店),021-33070215,黄浦区,大境路52-54,121.487096,31.225448999999998
421,联华超市(德祥店),021-52668953,普陀区,武宁路1056号,121.41021200000002,31.246007000000002
422,联华超市(定康路),,奉贤区,南桥镇定康路25号新中心医院,121.504993,30.920265999999998
423,联华超市(东兰店),021-34130104,闵行区,万源路东兰路717号,121.391699,31.154522999999998
424,联华超市(丰庄店),021-39180073,嘉定区,丰庄西路570号,121.35675,31.24878
425,联华超市(田园店),021-34070191,闵行区,莘庄镇都市路4382号二楼,121.39559399999999,31.094396000000003
426,联华超市(金塔路),,闵行区,都市路768号,121.41950200000001,31.04298
427,联华超市(绿林店),,浦东新区,下南路227弄25-27号,121.543217,31.168198999999998
428,联华超市(天福店),021-63249408,静安区,天潼路768号,121.47896399999999,31.243578999999997
429,联华超市(浙江北路),,闸北区,浙江北路374-376号,121.47460500000001,31.247668
430,联华超市(安化店),021-32200349,长宁区,安化路123-127号,121.42948,31.21531
431,联华超市(赵屯店),021-39718073,青浦区,赵屯镇建屯路219号,121.08158,31.257179999999998
432,联华超市(西渡店),021-37442041,奉贤区,沪杭公路5号(近渡口),121.430223,30.994949
433,联华超市(汇港店),,浦东新区,老港镇南港公路1328号1层,121.83312099999999,31.0396
434,联华超市(茸盛店),,松江区,茸盛路566-572号,121.246571,31.065070000000002
435,联华超市(西郊枫林苑南),021-59761105,青浦区,诸光路519号,121.312917,31.166475
436,联华超市(胡辉店),,浦东新区,金桥镇新金桥路230号T17-6幢101室,121.59841899999999,31.249619
437,联华超市(明杰店),021-51676044,宝山区,淞南镇通南路348-350号,121.470347,31.335915000000004
438,联华超市(鼓浪路),021-57620362,松江区,鼓浪路268号,121.27811499999999,31.116321000000003
439,联华超市(启帆店),,浦东新区,启帆路299-303号,121.58448600000001,31.312824
440,联华超市(浦秀店),021-34300768,闵行区,浦秀路639弄1号1层,121.493596,31.079609
441,联华超市(竹柏店),,浦东新区,新城镇竹柏路250-252号,121.91084199999999,30.900887
442,联华超市(东明路店),,浦东新区,永泰路1205附近,121.524826,31.143187
443,联华超市(航头店),021-58072671,浦东新区,航头镇富田路59弄1号旁,121.59635,31.027278000000003
444,联华超市(罗秀路店),021-54391858,闵行区,梅陇镇罗秀路1346号,121.418343,31.128814000000002
445,联华超市(宛南店),021-54590443,徐汇区,宛平南路852号-858号,121.451443,31.183965999999998
446,联华超市(松江人民店),021-57830132,松江区,乐都路348-8号,121.22689,31.0141
447,联华生活馆,021-55060550,杨浦区,双阳路665-2号,121.528127,31.288271999999996
448,联华超市(桂平路店),021-34140371,徐汇区,桂平路264号1室,121.407909,31.158285
449,联华超市(德园店),,嘉定区,南翔镇德园路1500弄7号,121.310359,31.292312
450,联华超市(翔昆路店),,松江区,玉昆路479弄95-10号附近,121.11755600000001,31.03355
451,联华超市(虹星路),021-58581384,浦东新区,虹星路195号,121.68755,31.2507
452,联华超市(广富林路店),18017115967,松江区,方松街道广富林路3477号,121.18891,31.053694
453,联华超市(新凌桥店),021-68663576,浦东新区,凌桥镇江东路1340号1层,121.54276999999999,31.365340000000003
454,联华超市(江海店),021-37442041,奉贤区,南桥人民南路11号,121.46238000000001,30.904320000000002
455,联华超市(飞虹店),021-65638254,杨浦区,飞虹路668-7号,121.51186899999999,31.266683
456,联华超市(沪广店),021-66770031,闸北区,广中西路1097号,121.434752,31.274641
457,联华超市(大盈店),021-59222169,青浦区,大盈社区大盈路394号,121.091406,31.213240000000003
458,联华超市(真新店),021-69194397,嘉定区,丰庄路25号,121.360359,31.24202
459,联华超市(林鸣路),,浦东新区,三林镇林鸣路355号,121.52786699999999,31.134108
460,联华超市(长宁路店),13816784023,长宁区,长宁路遵义路交叉口1485号,121.40887099999999,31.217019
461,联华超市,,奉贤区,新奉公路6713号附近,121.63930500000001,30.914738
462,联华超市,,嘉定区,塔山路与安驰路交叉口西南50米,121.177624,31.284257
463,联华超市,,松江区,塘砖路北50米,121.253272,31.098340999999998
464,联华超市,021-33537227,长宁区,威宁路333号,121.384732,31.212688
465,联华超市,021-38983966,浦东新区,曹路镇海鸣路106号,121.671797,31.28378
466,联华超市(农建一路),021-56853128,崇明区,长兴乡潘圆公路108号1层,121.7756,31.338634000000003
467,联华超市(坦直店),,浦东新区,坦直镇坦直路60号,121.64840900000002,31.073188000000002
468,联华超市(延吉西路店),021-55570308,杨浦区,延吉西路118号-6,121.52011499999999,31.279995
469,联华超市(浦东商场成山店),021-68585557,浦东新区,成山路480号世纪联华B1楼近云莲路,121.50686100000001,31.172209000000002
470,联华超市,13052012406,奉贤区,海湾镇海泉路567号,121.50883999999999,30.838357000000002
471,联华超市,18370993136,嘉定区,真新街道金鼎路2592号,121.359471,31.259611
472,联华超市,,嘉定区,雅丹路685-687号,121.199312,31.293202
473,联华超市,18918604560,浦东新区,新环北路1113-1115号,121.638727,31.031299
474,联华超市,18629751853,浦东新区,顾唐路167号,121.66673999999999,31.209139
475,联华超市,18857968587,青浦区,朱家角镇浦泰路,121.035795,31.132831
476,联华超市(广富林路店),13601755768,松江区,广富林路1188弄181-101号,121.23533300000001,31.059471000000002
477,联华超市,,杨浦区,国顺路103号,121.51678999999999,31.290653999999996
478,联华超市,,杨浦区,隆昌路446号,121.545098,31.272461
479,联华超市,021-56330078,静安区,彭浦镇场中路3258号,121.433783,31.303738
480,联华超市(春申路店),,闵行区,春申路1715,121.429728,31.114025
481,联华超市,,浦东新区,曹路镇海鸣路106号,121.671797,31.28378
482,联华超市(梅岭北路店),021-62167137,普陀区,梅岭北路294号,121.407459,31.242759000000003
483,联华超市(新二店),,宝山区,淞南镇新二路1315号,121.47501799999999,31.334931
484,联华超市(盛足店),13120645347,杨浦区,政和路939弄55号,121.516501,31.337296000000002
485,联华超市(长江店),021-36140030,宝山区,淞南路320号,121.491178,31.344493
486,联华超市(民府路),,杨浦区,民府路941-943,121.50821,31.316079
487,联华超市(大华方跣寤��?6区西),021-20228122,浦东新区,华春路359号(大华方跣寤��?6区西),121.52928100000001,31.175394
488,联华超市(美平路),,宝山区,美平路479号,121.344268,31.388688000000002
489,联华超市,,宝山区,顾村镇陈广路530号,121.35153400000002,31.325992
490,联华超市,,长宁区,协和路279号,121.356277,31.212287
491,联华超市,,虹口区,大连西路259-101,121.48798799999999,31.276349
492,联华超市,,嘉定区,新源路1319号,121.150671,31.308538000000002
493,联华超市,,嘉定区,新源路1319号,121.150671,31.308538000000002
494,联华超市(唐行店),021-59951055,嘉定区,嘉行公路3178弄2号,121.240849,31.462228000000003
495,联华超市,021-59137026,嘉定区,江桥镇金耀南路293号,121.31081599999999,31.236946999999997
496,联华超市,,闵行区,景联路411号附近,121.453127,31.101203
497,联华超市,,浦东新区,航昌路171-173号,121.608232,31.079932
498,联华超市,15001884779,浦东新区,康桥镇川周公路3251弄1号一层102室,121.597315,31.130627
499,联华超市,,青浦区,徐泾镇龙联路208弄60号,121.290769,31.195057000000002
500,联华超市(云雅店),021-58585010,浦东新区,云雅路377-383号1层,121.67848899999998,31.243378999999997
501,联华超市(余庆店),,静安区,共和新路4440-3、4446,121.44827099999999,31.312171000000003
502,联华超市(听悦店),18601602062,浦东新区,听悦路690-692,121.738933,31.047246
503,联华超市(南团店),021-68099515,浦东新区,惠南镇南团公路43-49号,121.76409299999999,31.039896999999996
504,联华超市(拱极路),021-68005409,浦东新区,惠南镇城东路380-392号2楼A1,121.76358700000002,31.052821999999995
505,联华超市(创新路店),021-58966473,浦东新区,川沙路3488号1层,121.689104,31.218773
506,联华超市(创新西路),,浦东新区,张江镇创新西路创新大浴场,121.63723300000001,31.195567999999998
507,联华超市(今辉店),13032182718,浦东新区,创新西路349-355号,121.651246,31.200976
508,联华超市(北虹路),,长宁区,北虹路1068号,121.376827,31.214772999999997
509,联华超市(芳华店),021-50610215,浦东新区,芳华路451-453号,121.55947900000001,31.196237
510,联华超市(御桥路店),021-50839465,浦东新区,御桥路73号,121.53253799999999,31.149376
511,联华超市(嘉华店),021-39980273,嘉定区,仓场路2960-3号,121.262525,31.381116
512,联华超市(东新店),021-52990986,普陀区,东新路220号,121.425541,31.240971999999996
513,联华超市(松兰路),,宝山区,松兰路795号,121.44573600000001,31.378128000000004
514,联华超市(红林路店),021-56490105,宝山区,杨行镇红林路60号(近川公路),121.429231,31.366926
515,联华超市(红林路店),18017004918,宝山区,杨行镇红林路599号,121.41868500000001,31.362095
516,联华超市(杨行店),021-56498799,宝山区,杨泰路556号之2-4号,121.43883100000001,31.378874
517,联华超市(浦东商场成山品牌直销中心),,浦东新区,成山路500号浦东商场B1,121.50741200000002,31.17206
518,联华超市(马陆店),021-59156565,嘉定区,马陆镇沪宜公路2208号,121.28418300000001,31.332063
519,联华超市(先知店),021-54419238,闵行区,畹町路99弄178号2室(畹町路与澜沧路交西南角),121.402831,31.103243
520,联华超市(瞿溪路店),021-63038420,黄浦区,瞿溪路897号(蒙自路),121.479104,31.200309000000004
521,联华超市(景联路店),021-54407232,闵行区,梅陇镇景联路964号,121.433724,31.099309
522,联华超市(金都店),021-64972812,闵行区,梅陇镇红梅南路2117号西南市场,121.41346899999999,31.098063
523,联华超市(佳乐路店),021-50550135,浦东新区,佳乐路200号(近金桥法院),121.613826,31.268772
524,联华超市(英才大厦东南),,虹口区,安国路263号,121.50501100000001,31.26
525,联华超市(水电路二店),,虹口区,水电路1314之7-8,121.476722,31.291178000000002
526,联华超市(八方大厦北),18916157006,浦东新区,桃林路461,121.53765600000001,31.235333
527,联华超市(文月店),,浦东新区,顺和路127-129号1层,121.62708400000001,31.186281
528,联华超市(东川路),021-34202895,闵行区,东川路859,121.432033,31.017251
529,联华超市(淞良店),021-36140194,宝山区,淞良路526,121.48625200000001,31.346649
530,联华超市(佘北公路),,松江区,佘北公路1641,121.200139,31.119967
531,联华超市,,青浦区,祥凝浜路585号(新风邮政所西南),121.056669,31.107563
532,联华超市(新溪路),021-59230099,青浦区,新风路148,121.057006,31.108974
533,联华超市(安波路),021-65332938,杨浦区,安波路366-1,121.530148,31.302595
534,联华超市(海思路店),,奉贤区,海思路393号,121.51656899999999,30.832128000000004
535,联华超市(振新综合楼东北),021-51676044,宝山区,通南路348,121.470347,31.335915000000004
536,联华超市(施新店),021-68967675,浦东新区,机场镇施新路839号,121.75725200000001,31.148455
537,联华超市(陶家塘),,闵行区,芦恒路一二八弄67,121.49563300000001,31.115531
538,联华超市(谷阳店),,金山区,中山路72号,121.47292,31.23071
539,联华超市(川周公路),021-68188230,浦东新区,川周公路4009-3,121.587056,31.125977000000002
540,联华超市(罗秀路店),021-54302206,徐汇区,罗秀路1131号,121.42581899999999,31.129935999999997
541,联华超市(洪山店),021-58830006,浦东新区,洪山路190,121.499278,31.175681
542,联华超市(华青南路),021-69735133,青浦区,华青南路455-457号,121.13389,31.145506
543,联华超市(雅轩店),,嘉定区,汇旺东路1219-1227,121.215902,31.405737
544,联华超市(华阳桥店),021-57774526,松江区,华阳街车香路178号,121.28551200000001,31.004993
545,联华超市(家芬店),,青浦区,振新佳苑281号,121.259918,31.178206
546,联华超市(上南七村八村南),021-58864620,浦东新区,成山路351弄1-4,121.50236899999999,31.172413
547,联华超市(莘庄店),021-64883729,闵行区,莘北路398弄,121.365822,31.114108
548,联华超市(下南路店),,浦东新区,下南路227弄23号临,121.54486000000001,31.168836
549,联华超市(东靖苑小区北),,浦东新区,东靖路386-392,121.57640500000001,31.291452000000003
550,联华超市(电台加盟店),021-56181962,宝山区,电台路599弄,121.39336000000002,31.357770000000002
551,联华超市(灵石店),,闸北区,灵石路997号,121.43085400000001,31.275976
552,联华超市(黎安路),,闵行区,黎安路488,121.37193400000001,31.130139
553,联华超市(赋欣店),021-36040660,宝山区,水产西路1072-1074号,121.41014299999999,31.353554
554,联华超市(大同小区东北),,奉贤区,南桥镇西渡扶港路517-521号1层,121.443678,30.989561
555,联华超市(宁珂店),,松江区,文汇路928弄109,121.20009399999999,31.049590000000002
556,联华超市(宣中支路店),,浦东新区,宣中路500弄48号,121.70136799999999,31.022223999999998
557,联华超市(罗香店),021-54630050,徐汇区,罗香路170,121.437625,31.135175
558,联华超市(平塘店),021-52172022,长宁区,平塘路212之1-3,121.36486000000001,31.2195
559,联华超市(虹南大楼北),,长宁区,虹桥路1022,121.419125,31.195152
560,联华超市(永靖路),,嘉定区,永靖路831-835,121.25796399999999,31.398971999999997
561,联华超市(曹杨店),021-32250062,普陀区,兰溪路35,121.412668,31.239008000000002
562,联华超市(雄发店),021-33823709,浦东新区,东靖路679,121.586491,31.291794
563,联华超市(长宁支路店),021-62103009,长宁区,长宁支路176-1,121.42585,31.226644
564,联华超市(云汉店),,浦东新区,云汉路962、966、968、970,121.807938,30.910602
565,联华超市(九亭公路),021-57631069,松江区,九亭镇九新公路257号,121.321807,31.127094
566,联华超市(阳光神州苑西北),,闵行区,华林路211,121.35678300000001,31.137845000000002
567,联华超市(芦潮店),,浦东新区,芦潮路79-87,121.85276599999999,30.862895
568,联华超市(塘东路),021-68904399,浦东新区,合庆镇塘东街178弄156号1层,121.73163600000001,31.213831
569,联华超市,,青浦区,夏阳街道青湖路1056号,121.12935,31.146108
570,联华超市(祥凝浜路),021-59242866,青浦区,祥凝浜路424,121.06008600000001,31.108995
571,联华超市(龙臣公寓南),021-68956079,浦东新区,五莲路753号,121.59068400000001,31.270145
572,联华超市(封浜店),021-39139035,嘉定区,吴杨路205,121.29431100000001,31.268596000000002
573,联华超市(长桥店),021-34080745,徐汇区,上中路285号(龙川路上中路),121.44273700000001,31.139188
574,联华超市(纪翟路店),,闵行区,纪翟路2793号,121.267918,31.24509
575,联华超市(新国顺店),021-65556726,杨浦区,沙岗路628,121.53591499999999,31.300809
576,联华超市(牡丹江路),021-56561602,宝山区,牡丹江路455,121.495421,31.384390999999997
577,联华超市(青浦区气象局南),021-69222040,青浦区,青松路831-835,121.11999499999999,31.134582
578,联华超市(江农店),021-35053445,宝山区,逸仙路1321弄68-1,121.48801,31.314369
579,联华超市(万辉店),021-61676948,杨浦区,民星路176号,121.54731799999999,31.311662
580,联华超市(书院镇),18317117728,浦东新区,老芦公路1359号,121.86703700000001,30.927407000000002
581,联华超市(零陵店),,徐汇区,零陵北路1号(近茶陵路),121.464638,31.197334
582,联华超市(青安店),021-33868923,青浦区,青安路386号,121.11818899999999,31.155337
583,联华超市(涞坊店),021-67624787,松江区,九亭镇涞坊路417号,121.313979,31.152227000000003
584,联华超市(高荷路),,浦东新区,高荷路412-416号,121.576454,31.336581
585,联华超市(江海公路),,崇明县,东新村新江416号(近江海公路),121.55473300000001,31.552652000000002
586,联华超市(逸墅新苑东),021-58484361,浦东新区,高东光明路835,121.62591100000002,31.325377000000003
587,联华超市(真北路店),021-36324636,宝山区,真北路4333弄136号,121.406477,31.29291
588,联华超市(松辉店),021-55891887,虹口区,辉河路118-3,121.4985,31.290955
589,联华超市(南园路),021-58003080,浦东新区,南园路城南村243号,121.745985,31.029398999999998
590,联华超市(红亮店),021-58170546,浦东新区,新场镇新环西路802号1层,121.639439,31.025759000000004
591,联华超市(石泉路),021-32060235,普陀区,石泉路113号,121.42746100000001,31.251229
592,联华超市(南洋瑞都西南),021-24286303,闵行区,金平路703,121.40849299999999,31.019703999999997
593,联华超市,,浦东新区,张江镇祖冲之路2305号,121.627944,31.211946
594,联华超市(吉曼大厦北),021-62845177,普陀区,真北路3271甲-31,121.395322,31.276203000000002
595,联华超市(裕安店),021-68106137,浦东新区,周祝公路3287号,121.749725,31.118979
596,联华建伟店(工业园区路),021-68160460,浦东新区,周祝公路2748号,121.71206699999999,31.118351
597,联华超市(鑫龙店),021-59987164,嘉定区,新成路街道迎园路283-285号,121.27243100000001,31.386576
598,联华超市(银都西路店),,松江区,银都西路215号,121.366028,31.081195
599,联华超市(华科路),021-69732342,青浦区,华科路129,121.128363,31.156571999999997
600,联华超市(都市路店),021-61362651,闵行区,都市路393-395号,121.42217099999999,31.035553999999998
601,联华超市(新德西路店),13482818099,浦东新区,德川路369号万家新天地商都1层,121.670178,31.192226
602,联华超市(罗阳店),,闵行区,景福路358弄34号,121.413001,31.122363
603,联华超市(新叶路),,奉贤区,奉城镇头桥镇新叶路17号,121.655671,30.977715999999997
604,联华超市(芷江店),021-36173314,闸北区,芷江中路361,121.47135800000001,31.259963
605,联华超市(新镇店),,青浦区,赵巷镇中路518号,121.202656,31.154818
606,联华超市(孙农路),,浦东新区,孙农路476号,121.625859,31.175607
607,联华超市(迎宾三路店),,长宁区,迎宾三路,121.32918899999999,31.176764000000002
608,联华超市(真大店),,宝山区,真大路433,121.401572,31.293397
609,联华超市(真大路),,宝山区,洛场路98,121.41156000000001,31.302525
610,联华超市(龙罗加盟店),,徐汇区,罗秀路228-230号,121.446289,31.13383
611,联华超市(南岸晶座北),021-54010576,徐汇区,龙吴路1715,121.453575,31.132578999999996
612,联华超市(八字桥店),021-37565157,奉贤区,八字桥路883-885,121.462223,30.93719
613,联华超市(文翔店),021-57631568,松江区,文翔路3088弄1-5号,121.192493,31.043432
614,联华超市(玉麦店),13818231975,嘉定区,黄渡镇玉麦路528号,121.21149299999999,31.278024
615,联华超市(春归店),021-69597363,嘉定区,黄渡镇春归路258号-A15-16,121.24596799999999,31.285867
616,联华超市(万祥路店),021-58042172,浦东新区,万祥镇,121.81553400000001,30.973008
617,联华超市(何家湾路),,宝山区,何家湾路16附近,121.49434,31.329596000000002
618,联华超市(芯杰店),021-56466663,宝山区,淞发路63-65号底层,121.496734,31.343895
619,联华超市(松中山店),021-37830154,松江区,中山东路116号1-4,121.25033,31.007381
620,联华超市(三泉路),021-56423078,闸北区,三泉路871,121.44039099999999,31.317046
621,联华超市(庙前街店),,松江区,庙前街8号,121.23384399999999,31.004927000000002
622,联华超市(华骥店),021-61219463,青浦区,青浦镇青湖路773号,121.136622,31.145391999999998
623,联华超市(六墩中心路),,奉贤区,六墩村轿行146,121.46484,30.897526
624,联华超市(闸殷路),,杨浦区,闸殷路72-1,121.52896299999999,31.335741
625,联华超市(康沈公路),,浦东新区,康沈路501,121.572277,31.137515999999998
626,联华超市(汤巷馨二期东南),021-68070496,浦东新区,环桥路1480,121.60294499999999,31.141596000000003
627,联华超市(来发店),021-66401318,宝山区,真华路1159,121.41093400000001,31.278864000000002
628,联华超市(梧桐城邦南),021-66620307,宝山区,真华路1770,121.411918,31.288158000000003
629,联华超市(江桦路),021-33882708,闵行区,浦申路1889-1,121.496375,31.104529
630,联华超市(田林五、六、七村北),021-33687198,徐汇区,田林十村43,121.41993899999999,31.173621
631,联华超市(宝馨店),021-36316708,宝山区,水产西路487号,121.422471,31.358569
632,联华超市(富泉店),021-36355300,普陀区,万里街道富平路275号,121.417157,31.263439
633,联华超市(中鼎豪园西南),021-52850506,普陀区,清涧路58,121.389072,31.262683000000003
634,联华超市(施湾店),,浦东新区,川沙机场镇施宏路355号,121.75785400000001,31.151469
635,联华超市(胡曹路),,松江区,新浜镇,121.06815300000001,30.933455
636,联华超市(莘砖公路),,松江区,莘砖公路附近,121.321008,31.091665000000003
637,联华超市(南苑店),021-39160014,嘉定区,沪宜公路3181,121.255874,31.371565000000004
638,联华超市(祁北路),,宝山区,祁北东路103号,121.35355200000001,31.42349
639,联华超市(南桥运河北路),021-57420631,奉贤区,南桥运河北路385,121.464008,30.924501
640,联华超市(莱阳店),021-68610131,浦东新区,莱阳路618,121.58369099999999,31.277546
641,联华超市(谢冰店),021-39539703,嘉定区,嘉怡路310-312号1层,121.348244,31.264523999999998
642,联华超市(海宁路店),,虹口区,海宁路475号,121.4838,31.249442
643,联华超市(永清店),021-66650346,宝山区,双城路204,121.499404,31.392947999999997
644,联华便利(丹徒店),,虹口区,东长治路830号(丹徒路东长治路),121.503905,31.252481
645,联华超市(大泥公路店),,浦东新区,大团镇海潮村507号1层(近大泥公路),121.76193799999999,30.955269
646,联华超市(铭诚店),18916615819,浦东新区,东建路222号,121.532908,31.202030999999998
647,联华超市(潘圆公路),021-56853128,崇明县,长兴乡潘园路108号1层,121.69086000000001,31.389640000000004
648,联华超市(临汾路),021-56886833,闸北区,临汾路112号,121.46528400000001,31.310926000000002
649,联华超市(新沪松店),,松江区,沪松公路1510号108室,121.314628,31.136526
650,联华超市(新凯店),,松江区,泗泾镇新家园路251弄2,121.23513999999999,31.107678000000003
651,联华超市(祝桥东港花苑三村西),021-58106141,浦东新区,祝城路81-2,121.762821,31.109329
652,联华超市(长宁路店),,长宁区,长宁路1952号,121.40201499999999,31.218853000000003
653,联华超市(九久青年城二期东南),,松江区,沪亭南路880号6幢-3,121.3255,31.133078
654,联华超市(新宣桥店),021-38180006,浦东新区,宣桥镇南宣公路285号,121.69953999999998,31.015520000000002
655,联华超市(建设店),021-34020048,闵行区,兰坪路81号,121.421549,31.000494
656,联华超市(松兰店),021-36046651,宝山区,杨行镇松兰路1168号,121.442761,31.385027
657,联华超市(阜临店),021-65112188,杨浦区,武东路42,121.49940900000001,31.301847
658,联华超市(升扬店),,青浦区,白鹤镇外青松公路2936号,121.13939599999999,31.255854
659,联华超市(宝峰店),021-33797117,宝山区,铁峰路1998号,121.454252,31.395984000000002
660,联华超市(华建一街坊西南),021-64964284,闵行区,老沪闵路1297,121.43862800000001,31.119335999999997
661,联华超市(书院镇店),,浦东新区,老芦公路785号,121.86743999999999,30.981498
662,联华超市(奕民店),021-69760337,青浦区,盈港东路1519,121.277019,31.173788000000002
663,联华超市(贞溪二村西北),,青浦区,松蒸路4457,121.077422,30.985008
664,联华超市(盘古路),021-56783038,宝山区,宝城一村39号104室,121.48923899999998,31.409722
665,联华超市(营口店),,杨浦区,营口路6号,121.53582800000001,31.285822999999997
666,上海市宝山区云功综合商店,021-56167536,宝山区,塘后路381号海江公寓门口,121.504434,31.398008
667,联华超市(申通公寓东南),021-33810117,杨浦区,长阳路1326,121.529095,31.266797999999998
668,联华超市(汲浜公路),021-69448258,崇明县,中兴镇,121.758095,31.523871000000003
669,联华超市,,浦东新区,晨阳路117-153号,121.75141,31.176209999999998
670,联华超市(横川店),021-58133522,浦东新区,康桥镇川周公路2691号-5,121.624779,31.144326
671,联华超市,,浦东新区,江晖路418,121.739332,31.17217
672,联华超市(富民店),021-39421019,崇明县,大新镇富民街3号,121.39651,31.61965
673,联华超市(东波路),021-68466507,浦东新区,东波路490、494、498,121.587097,31.283546
674,联华超市(建中路),17601388590,浦东新区,老港镇建中路289号,121.840856,31.034915
675,联华超市(浦江社区卫生服务中心鲁汇分中心西南),,闵行区,闸航路2621,121.533955,31.019389
676,联华超市(共富店),021-36190376,宝山区,联泰路327号,121.42786299999999,31.350282
677,联华超市(昆冈店),021-57764388,松江区,小昆山镇清河街48-52号,121.137394,31.035889
678,联华超市(三林店),021-50826800,浦东新区,济阳路1875号,121.49139299999999,31.138468
679,联华超市(恒大店),021-38790014,浦东新区,西营南路15号,121.485948,31.161069
680,上南联华(周康),,浦东新区,上南路6572号,121.55148500000001,31.118972999999997
681,联华超市(松隐中心路),021-57380878,金山区,松溪路180号,121.23905500000001,30.893815999999998
682,联华超市(春申路),,闵行区,春申路1715弄,121.40816799999999,31.107840999999997
683,联华超市(浦三路店),021-50852749,浦东新区,永泰路1988号三林永泰菜市场2层,121.54220600000001,31.145939000000002
684,联华超市(杨园店),021-38850022,浦东新区,高东镇赵高路1205号,121.63435,31.30565
685,联华超市(鑫标店),,闵行区,华漕镇北翟路2000弄180号底层A、B室,121.33056,31.2268
686,联华超市(见面缘店),,松江区,中山二路289号,121.226045,31.009778999999998
687,莲花超市(方家窑店),,青浦区,赵巷镇沪青平公路2772号,121.23338999999999,31.153387
688,联华超市(浦东新区高东镇金光村村民委员会东北),021-68483943,浦东新区,赵高公路1728号,121.640459,31.296802000000003
689,联华超市(金葵路),,浦东新区,金葵路1057,121.63010700000001,31.239441999999997
690,联华超市(五星),021-58039067,浦东新区,宣桥三灶社区三灶村525号,121.711201,31.06822
691,联华超市(沪杭店),021-57154770,奉贤区,西渡镇沪杭公路76号,121.430328,30.993614
692,联华超市(包头店),021-65060908,杨浦区,市光路1061-1063,121.535028,31.321703000000003
693,联华超市(九新店),,松江区,九新公路1788-5号,121.316239,31.081231
694,联华超市(长海医院北),021-65578791,杨浦区,长海路140号,121.528054,31.309528999999998
695,联华超市,,奉贤区,泽丰路98,121.489175,30.929555999999998
696,联华超市(浦东大道),021-58333020,浦东新区,浦东大道2690-2,121.57001699999999,31.265532
697,联华超市(宝通店),,宝山区,罗泾镇萧月路168号,121.32823,31.488006
698,联华超市(东波苑店),021-50691118,浦东新区,外高桥保税区东波路79号,121.57748000000001,31.284369
699,联华天猫,021-58142599,浦东新区,航头镇下沙西街19号,121.588907,31.050686
700,联华超市(香花店),021-39718522,青浦区,北青公路9146号,121.13606000000001,31.18665
701,联华超市(千新公路),,松江区,千新公路1205,121.172721,31.104314000000002
702,联华超市(傲铺店),,浦东新区,航梅路526弄-78支弄-163号,121.582748,31.022156
703,联华超市(劳动路),021-59940915,嘉定区,劳动路654号,121.323117,31.444203
704,联华超市(中江路店),021-52650805,普陀区,中江路1059号(近739梅川新村站),121.392377,31.238042999999998
705,联华超市(博山店),13248305242,浦东新区,博山路158号,121.55495800000001,31.244525
706,联华超市(二路店),,浦东新区,杨孙宅一路1号41号,121.635479,31.331516999999998
707,联华超市(华亭店),021-59972763,嘉定区,华亭镇浏翔公路7102号,121.28372900000001,31.468090000000004
708,联华超市(宝山路店),021-36535869,静安区,宝山路390号,121.47702,31.25627
709,联华超市(虹梅南路店),021-64531311,闵行区,梅陇镇虹梅南路27号,121.412897,31.138347999999997
710,联华超市(周祝店),021-68119763,浦东新区,周浦镇周祝公路211号1层,121.60570700000001,31.102766
711,联华超市(新建西路店),021-67100565,奉贤区,新建西路433、437号,121.44589199999999,30.914357
712,联华超市(崧秀路),021-27739650,青浦区,香花桥街道青山小区崧秀路205-2号,121.17585600000001,31.152635999999998
713,联华超市(吴杨东店),021-39530326,嘉定区,吴杨东路333弄343号,121.30276299999998,31.270598
714,联华超市(顺发店),021-66769228,宝山区,杨鑫路314号,121.441892,31.36826
715,联华超市(江协店),,闵行区,江协路45号,121.535734,31.054592
716,联华超市(青暮路店),,浦东新区,川沙镇青厦路200弄3号101室,121.684229,31.196908
717,联华超市,021-57841900,松江区,塔汇路367,121.179069,30.970795000000003
718,联华超市(标树店),021-54158832,闵行区,汇文路314号,121.54125,31.062609000000002
719,联华超市(华东师大闵行区校医院北),,闵行区,剑川路399号华师大本科学生公寓,121.448826,31.034841999999998
720,联华超市(彭赵店),021-59902369,嘉定区,马陆镇彭赵村丰登路1551弄8号,121.276326,31.350352
721,联华超市(纪翟路店),13701718758,闵行区,北翟支路与纪翟路交叉口东南150米,121.29768100000001,31.205216999999998
722,联华超市(共泉路店),021-56485773,宝山区,共泉路70号,121.441309,31.327634000000003
723,联华超市(鹤长路店),,闵行区,先新路附近,121.561687,31.043120000000002
724,联华超市(卫生科路),,宝山区,卫生科路68附近,121.485796,31.343068
725,联华超市(广富林路),,松江区,广富林路1214-1216,121.194478,31.056688
726,联华超市(白渡路店),021-33302138,黄浦区,白渡路303号,121.499421,31.220002
727,联华超市(星富街),021-54865591,闵行区,漕宝路2122-10号,121.36157800000001,31.157445000000003
728,联华超市(黄路店),021-38270003,浦东新区,南汇黄路镇振欣路139号,121.777813,31.024965
729,联华超市(仓库宅店),021-66022068,宝山区,沪太公路5785号1层,121.369212,31.372269
730,联华超市(丰华公路店),,嘉定区,幸福村212号附近,121.335784,31.243938
731,联华超市(练塘店),021-39241512,青浦区,练北新村23号,121.04310500000001,31.009678000000005
732,联华超市(盐仓店),021-38090067,浦东新区,盐仓镇商住楼8号,121.544379,31.221517
733,联华超市(景福路店),021-54630240,闵行区,景福路135号,121.41001000000001,31.121436
734,联华超市(百平店),,闸北区,高平路811号101,121.427549,31.291357
735,联华超市(小区环路),,浦东新区,古棕路四三八弄5,121.913821,30.881035999999998
736,联华超市(惠亚店),021-69171896,嘉定区,南翔镇惠亚路611号,121.288255,31.310781
737,联华超市(盛苑路),021-50859264,浦东新区,盛苑路596,121.527207,31.159678000000003
738,联华超市(杰欣店),,宝山区,松兰路242-246号,121.449428,31.370323
739,联华超市(仓丰店),,松江区,仓丰路993-1,121.19203999999999,31.010096
740,联华超市(顾高店),021-58633177,浦东新区,高东镇顾高公路1999号,121.652576,31.30058
741,联华超市(浦益店),021-33920922,浦东新区,张江镇益江路513-523号,121.627674,31.196378000000003
742,联华超市(赵中店),021-59212108,青浦区,新赵路57号,121.085668,31.256006
743,联华超市(菊联店),021-36312506,宝山区,菊联路213号,121.36401200000002,31.346965
744,联华超市,021-50795100,浦东新区,长岛路740,121.586206,31.260296999999998
745,联华超市(丰康店),15801801829,崇明区,长兴镇丰康路71号,121.700891,31.393620000000002
746,联华超市(陆行路),,浦东新区,陆行路附近,121.718056,31.005783
747,联华超市(亦园店),021-58039336,浦东新区,下盐路3919,121.713623,31.069308000000003
748,联华超市(永中山店),021-32250761,普陀区,中山北路2605弄43号,121.421504,31.243837
749,联华超市(建荣店),021-54136307,闵行区,水清路10201层,121.377948,31.121585999999997
750,联华超市(淞兴西路),021-56840277,宝山区,吴淞街道淞兴西路43号1层,121.49238400000002,31.369969
751,联华超市(中心路店),021-57647349,松江区,新南街350弄69,121.315071,31.062803999999996
752,新联华超市(新建东路),021-67184540,奉贤区,新建东路390-392号,121.47278899999999,30.920396000000004
753,联华超市(新申花城茉莉苑东南),021-54388093,闵行区,春申路2778,121.40061399999999,31.105938000000002
754,联华超市(戬浜店),021-59516157,嘉定区,大治路447号,121.299015,31.376306
755,联华超市(航南路),021-64207191,闵行区,航华一村一街坊95号,121.35633200000001,31.178390999999998
756,联华超市(中佳店),,嘉定区,南翔镇中佳路32号1层,121.320927,31.29634
757,联华超市(新源店),021-69571067,嘉定区,新源路931-1号,121.153007,31.300993
758,联华超市(申浦店),,宝山区,申浦路271、275,121.41311699999999,31.424967
759,联华超市(栖山店),021-68610434,浦东新区,栖山路1691-1701,121.56716000000002,31.258540000000004
760,联华超市(九泾路),021-37633480,松江区,九泾路744弄690-692号,121.293132,31.140292
761,联华超市(寅青路),021-67697954,松江区,寅青路483-485号,121.286185,31.141516999999997
762,联华超市(梅陇店),021-54630153,徐汇区,梅陇路419号(凌云路梅陇路),121.41893999999999,31.13803
763,联华超市(北青店),021-39763066,青浦区,北青公路4604号,121.23229099999999,31.196481
764,联华超市(长岛店),021-66205924,宝山区,呼玛路611号,121.446945,31.338928000000003
765,联华超市(学前店),13482337358,黄浦区,中华路1009号,121.490278,31.214710999999998
766,联华超市(株洲路),,虹口区,株洲路268-1,121.46531599999999,31.276909999999997
767,联华超市(谈中路),021-64119688,闵行区,谈中路87,121.53326399999999,31.065944000000002
768,联华超市(宛平南路),,徐汇区,宛平南路260-4附近,121.45018700000001,31.185895000000002
769,联华超市(盛桥店),021-66683331,宝山区,盛桥一村43号,121.40438300000001,31.451894
770,联华超市(金谊河畔东),021-50104058,浦东新区,永泰路623,121.516939,31.139801000000002
771,联华超市(亦诺店),021-67840622,松江区,九亭镇涞坊路35号1层,121.324207,31.156132
772,联华超市(港西店),021-59671231,崇明县,港西南盘效镇5号,121.207213,31.786554
773,联华超市(康右福店),021-57138262,奉贤区,洪南路188号,121.69291899999999,30.927202
774,联华超市(浦东软件园陆家嘴分园2号楼西),021-50896556,浦东新区,峨山路91弄98号,121.5319,31.21733
775,联华超市(丰镇路店),,虹口区,丰镇路126号(近华严路),121.47431399999999,31.304555999999998
776,联华超市(裕丰店),021-39120023,嘉定区,裕丰路258,121.30684,31.297659999999997
777,联华超市(月丰店),021-33936429,浦东新区,三林镇陈行公路99弄1号,121.525985,31.124540000000003
778,联华超市(上房金丰苑东南),021-50388383,浦东新区,浦东大道2571,121.56286100000001,31.259911
779,联华超市(南期昌路店),021-67700561,松江区,南期昌路482-488号,121.225724,31.02448
780,联华超市(东余杭店)(装修中),18302196998,虹口区,余杭路216号1层,121.49278100000001,31.251545
781,联华超市(慈云街),021-64680277,徐汇区,天钥桥路380弄60-3,121.43956999999999,31.187659999999997
782,联华超市,021-57568857,奉贤区,青村镇南奉公路2688号,121.584244,30.923939
783,联华超市(杨南路),021-68520080,浦东新区,杨南路562,121.49766299999999,31.150402000000003
784,联华超市(漠河路),021-66792890,宝山区,漠河路312,121.472371,31.407628999999996
785,联华超市(宝良店),021-36045443,宝山区,友谊路2758,121.43512,31.38512
786,联华超市(长江南路),021-36140142,宝山区,长江南路108号(近地铁3号站),121.487246,31.333139000000003
787,联华超市(尚旺店),,宝山区,共康路753号-757号底层,121.43048,31.321759000000004
788,联华超市(虹桥路),,长宁区,虹桥路1023,121.413528,31.196556
789,联华超市(柏树店),021-55510132,虹口区,吴家湾路22号楼上吴家湾路52弄7号旁,121.486356,31.291938000000002
790,联华超市(江湾店),021-55511479,虹口区,新市北路1523,121.4814,31.3064
791,联华超市(祥亨店),021-39170618,嘉定区,翔江公路1258号,121.27700300000001,31.289619000000002
792,联华超市(鹤霞路),021-52836283,嘉定区,鹤霞路610号,121.30843899999999,31.244866
793,联华超市(万源店),021-34130044,闵行区,万源路916号万源城乐斯生活会馆C栋1层,121.39453200000001,31.148777000000003
794,联华超市(海新店),021-51374828,闵行区,苏召路1601号第6幢底楼6-20号,121.53596399999999,31.100872
795,联华超市(沧源店),021-34020192,闵行区,沧源路762、764、766、770号,121.42861,31.014229999999998
796,联华超市(剑龙店),021-54872928,闵行区,剑川路55号101-106室,121.473877,31.043160999999998
797,联华超市(南门店),021-38000215,浦东新区,惠南镇,121.749346,31.047971999999998
798,联华超市(六团店),021-38931343,浦东新区,川六公路1921号,121.72978,31.15533
799,联华超市(泥城店),021-38070000,浦东新区,泥城路102-106,121.808264,30.896427000000003
800,联华超市(芳华店),021-50610215,浦东新区,芳华路451-453,121.56888500000001,31.197025
801,联华超市(多彩人生俱乐部西北),,浦东新区,沪南路3468弄1支弄13,121.56621899999999,31.114372999999997
802,联华超市(白龙港店),021-58978849,浦东新区,合庆镇凌白路1135号,121.743377,31.233003999999998
803,联华超市(周浦店),021-38110656,浦东新区,康沈路1551,121.57575600000001,31.1178
804,联华超市(北中路),,浦东新区,北蔡镇北蔡新大街33号底层,121.55775600000001,31.183978999999997
805,联华超市(耀华路),021-50565669,浦东新区,耀华路414弄5-1,121.485548,31.173299
806,联华超市(同普路),021-52706460,普陀区,同普路1437,121.364575,31.234294000000002
807,联华超市(桂巷店),021-32020148,普陀区,杨柳青路331-1、335、339,121.39895800000001,31.244290000000003
808,联华超市(华联路),,普陀区,华联路28号底层F02号房,121.34389499999999,31.280378999999996
809,联华超市(我格广场),021-32520264,普陀区,武宁路101号B1层B1-36,121.42362299999999,31.237705
810,联华超市(宏启店),021-52781056,普陀区,桃浦路1155号101-103室,121.380082,31.260915
811,联华超市(古浪店),021-62842881,普陀区,古浪路415弄1号,121.38532099999999,31.282928000000002
812,联华超市(城区店),021-39200033,青浦区,盈港路782号,121.10698899999998,31.161176
813,联华超市(康鞍店),021-33862240,青浦区,公园东路1688弄24号1层,121.133817,31.155301
814,联华超市(旭乐店),18018642927,青浦区,胜利路225,121.104426,31.157643
815,联华超市(沈巷店),021-39205523,青浦区,沈砖公路478-480,121.056261,31.076419
816,联华超市(五厍镇),021-57872606,松江区,五库镇,121.140203,30.939321000000003
817,联华超市(新育店),021-57640631,松江区,新育路394,121.32089199999999,31.063585999999997
818,联华超市(古楼路),021-37789813,松江区,古楼公路366-368,121.237738,31.104371999999998
819,联华超市(芝园店),021-57706243,松江区,谷阳北路902号,121.235279,31.023414000000002
820,联华超市(松汇店),021-57822528,松江区,松汇中路963,121.22495,31.003477
821,联华超市,021-54910402,徐汇区,龙华路2518弄盛大花园(盛大美容中心楼下),121.45441100000001,31.177849
822,联华超市(漕东店),021-54590451,徐汇区,漕东路18,121.4393,31.173609999999996
823,联华超市(茶陵店),021-64166864,徐汇区,茶陵路216-1,121.46628500000001,31.197729
824,联华超市(凯翔店),021-64081098,徐汇区,漕东支路1之5-7,121.43822800000001,31.169803
825,联华超市(田林店),021-54640451,徐汇区,田林路2号2楼,121.423382,31.171934000000004
826,联华超市(龙瑞路店),021-33682654,徐汇区,龙瑞路68-72号,121.453332,31.139767
827,联华超市(国定店),021-55520204,杨浦区,国定支路28,121.505283,31.305269
828,联华超市(普善店),021-56552110,闸北区,普善路65,121.457978,31.254541999999997
829,联华超市(沪泰店),021-66610042,闸北区,柳营路1035,121.450167,31.260991999999998
830,联华超市(大宁店),021-36033297,闸北区,大宁路254-262,121.44906399999999,31.273477000000003
831,联华超市(心妍店),021-52120839,闸北区,长安路832号,121.453599,31.241953000000002
832,联华超市(富民店),,崇明区,横沙乡富民沙路3201弄,121.835102,31.358268
833,联华超市(吴店路店),021-58591507,浦东新区,吴店路383号,121.721851,31.145653999999997
834,联华超市(民雪路),021-50211828,浦东新区,民雪路108,121.65808,31.275238
835,联华超市(民耀店),021-50213267,浦东新区,民同路276弄63号,121.653472,31.271195000000002
836,联华超市(丰华公路),021-69117226,嘉定区,丰华路777,121.338788,31.24138
837,联华超市(莲安东路店),021-68922085,浦东新区,莲安东路346-352号1层,121.56268999999999,31.180903999999998
838,联华超市(标树店),021-54158832,闵行区,汇文路314号,121.54125,31.062609000000002
839,联华超市(莲花店),021-56413417,闵行区,莲花路241,121.40142,31.138990000000003
840,联华超市(万荣小区东南),021-56658811,闸北区,灵石路733弄31,121.439545,31.284053000000004
841,联华超市(灵石路),021-66308177,闸北区,灵石路697号乙,121.446322,31.283478999999996
842,联华超市(重固店),021-59780136,青浦区,重固镇福泉山路554号,121.18008,31.200281
843,联华超市(罗升店),021-56391685,宝山区,罗升路328号,121.34118400000001,31.410815999999997
844,联华超市(横沙乡店),021-66720010,崇明区,横沙新民镇丰乐路2593号,121.84053899999999,31.338440000000002
845,联华超市(安宁路店),,闵行区,安宁路100号(安宁路东川路),121.41694,31.01207
846,联华超市(新浦路),021-68746237,浦东新区,新浦路626,121.52916599999999,31.169495
847,联华超市(九干公路店),,松江区,泗泾镇九干路1168号,121.27321,31.131565000000002
848,联华超市,021-38065011,浦东新区,万和路126号,121.815852,30.967785
849,联华超市(涞亭南路店),021-67620142,松江区,九亭镇涞亭南路888弄91号,121.34241100000001,31.123748
850,联华超市(中山北路店),021-32250761,普陀区,中山北路3712号9号,121.410853,31.227428999999997
851,联华超市(爱家店),021-38763661,浦东新区,东建路528,121.53720600000001,31.19998
852,联华超市(永汇店),021-66773234,普陀区,白丽路3号,121.35381799999999,31.278698
853,联华超市(古北新城店),021-64012794,闵行区,吴中路625,121.398918,31.182276
854,联华超市(原平店),021-66621414,闸北区,原平路787,121.43144699999999,31.292602000000002
855,联华超市(建设公路店),021-59332453,浦东新区,建设镇建设公路1338号,121.45447,31.659809999999997
856,联华超市(西康店),021-62676126,静安区,西康路512,121.447671,31.234007000000002
857,联华超市(北园店),021-68640014,浦东新区,北园路270-286号,121.525578,31.203649
858,联华超市(银山路店),021-50139301,浦东新区,银山路179,121.57983300000001,31.243789000000003
859,联华超市(志丹店),021-66770089,普陀区,志丹路359-1,121.43033,31.268476
860,联华超市(白鹤店),021-39205120,青浦区,青松公路2723弄8-10号,121.11895600000001,31.135944
861,联华超市(增惠店),021-57757182,松江区,新松江路1292弄137号1层,121.210572,31.040684999999996
862,联华超市(新松江路店),,松江区,新松江路267-269号,121.23333799999999,31.038532
863,联华超市(长春苑西南店),,徐汇区,钦州北路164-168号,121.42161200000001,31.180402
864,联华超市(沪闵店),021-34280048,徐汇区,老沪闵路605-1号,121.42815300000001,31.146728000000003
865,联华超市(安图路),,杨浦区,安图路176-3,121.539805,31.293771999999997
866,联华超市(于华店),021-58187355,浦东新区,听潮南路69号,121.741836,31.037553999999997
867,联华超市(明兴路),021-33735530,松江区,新桥镇明中路881弄-2号101-103、108、109,121.34338000000001,31.077840000000002
868,联华超市(上海市浦东新区房产测绘中心西北),021-50723747,浦东新区,高科西路2111弄159-162号,121.53579599999999,31.188091999999997
869,联华超市(虹星路),021-58581384,浦东新区,虹星路,121.66295900000001,31.251734000000003
870,联华超市(曹行店),021-64978061,闵行区,曹建路502号2幢,121.436874,31.091618
871,联华超市(远洋店),021-54581363,闵行区,吴中路978,121.38906999999999,31.178138
872,联华超市(钦州南路店),021-64709451,徐汇区,钦州南路38号甲,121.42633300000001,31.160460999999998
873,联华超市(桂林店),021-34140069,徐汇区,冠生园路232,121.426572,31.163414000000003
874,联华超市(新泾家苑西北),021-32260915,长宁区,仙霞西路925号,121.34847099999999,31.209708000000003
875,联华超市(浦东路),021-57138189,奉贤区,浦东路8号,121.68468,30.924852
876,联华超市(川南奉公路),,奉贤区,川南奉公路9188,121.67455600000001,30.922644000000002
877,联华超市(龚新路),021-38923287,浦东新区,龚路镇龚新路351号,121.68236100000001,31.260076
878,联华超市(龚华路),021-54573256,浦东新区,龚华路288,121.685652,31.262482000000002
879,联华超市(莘松路),021-67692625,松江区,莘松公路1478号,121.338642,31.093071000000002
880,联华超市(浦连路),021-64119688,闵行区,浦连路132-136,121.532749,31.050758000000002
881,联华超市(孙桥路),021-58577813,浦东新区,孙桥路293号,121.630978,31.180853999999997
882,联华超市(忠兴店),021-56370068,闸北区,灵石路1175,121.42766100000001,31.273127000000002
883,联华超市(曹路店),021-38983966,浦东新区,上川路1688-1690,121.668398,31.279119
884,联华超市(方泗公路),,松江区,泗泾镇方泗路285号,121.273826,31.133464
885,联华超市(华发路),021-64961807,徐汇区,华发路122-126,121.450022,31.127166
886,联华超市(烨彪店),021-57196521,奉贤区,奉炮公路408号,121.52304,30.837652000000002
887,联华超市(御山店),,浦东新区,御桥路1756-1760,121.53238700000001,31.148784999999997
888,联华超市(静安店),021-52138429,静安区,新闸路1980之1-2,121.4402,31.22597
889,联华超市(延平店),021-62670435,静安区,延平路128号静安盛达,121.441034,31.228948
890,联华超市(藿香路),,浦东新区,晨晖路728附近,121.595339,31.199489
891,联华超市(朱泾万安街),021-37330068,金山区,万安街855号,121.160896,30.896818
892,联华超市(张杨店),021-68670289,浦东新区,张杨路1265-1,121.53176200000001,31.232384000000003
893,联华超市(高桥店),021-68660127,浦东新区,慈善街1-19号,121.58090700000001,31.344783000000003
894,联华超市(关岳路),021-68138675,浦东新区,关岳路141,121.58582,31.119702
895,联华超市(锦绣华庭西南),021-20231033,浦东新区,锦安西路24,121.53701399999999,31.205879
896,联华超市(金山店),,金山区,新城路332,121.340477,30.712878999999997
897,联华超市(航兴店),021-38145007,浦东新区,航兴路88号(南汇区航头镇),121.59733899999999,31.022297
898,联华超市(交通路),021-36150106,普陀区,交通路4221,121.397042,31.2647
899,联华超市(南部阳光翠庭西北),,松江区,新松江路1113,121.214514,31.038384000000004
900,联华超市(振钱路),021-57595769,奉贤区,青村镇钱桥社区振钱路38号,121.540986,30.869761999999998
901,联华超市(长岛店),021-60930525,浦东新区,长岛路1146-1150号,121.591854,31.260692
902,联华超市(阜康西路店),021-59561120,嘉定区,墨玉路258-6号,121.162581,31.298625
903,联华超市(华阴店),021-66610194,普陀区,沪太路660-1,121.44696100000002,31.261751
904,联华超市(广灵店),021-65292870,虹口区,广灵四路226乙,121.47648999999998,31.28675
905,联华超市(天宝路),021-65012599,虹口区,天宝路72号101室,121.49581699999999,31.261446999999997
906,联华超市(菊园店),021-69991560,嘉定区,棋盘路1068,121.25393600000001,31.396717
907,联华超市(沈家弄店),021-50931089,浦东新区,沈家弄路762-2,121.54239199999999,31.236964
908,联华超市(共江店),021-66203961,宝山区,共江路772-774号,121.452748,31.329964
909,联华超市(漕宝店),021-34100054,闵行区,漕宝路1798,121.368835,31.157897
910,联华超市(友谊路),021-56603576,宝山区,友谊路46-3,121.488529,31.406894
911,联华超市(玉田大楼西南),021-35318295,虹口区,玉田路226,121.494499,31.27923
912,联华超市(祁昌路),,嘉定区,外冈镇祁昌路272,121.172599,31.363468
913,联华超市(欧阳店),021-55152815,虹口区,欧阳路299号,121.488179,31.268407
914,联华超市(万川店),021-69197611,嘉定区,梅川路1540号,121.375518,31.246869
915,联华超市(野桥店),021-56417747,宝山区,三泉路1451,121.43789,31.323992999999998
916,联华超市(四平店),021-55560255,虹口区,四平路287,121.49022,31.26362
917,联华超市(海伦店),021-55600147,虹口区,海伦路515,121.486609,31.258488
918,联华超市(芙蓉金厢园西北),,嘉定区,新源路234-236,121.155845,31.298247999999997
919,联华超市(鹤庆店),021-34050034,闵行区,鹤庆路536-552,121.41135,31.007620000000003
920,联华超市(益江店),021-38950065,浦东新区,益江路238号,121.63107,31.19943
921,联华超市(复地店),021-33310188,虹口区,曲阳路906,121.491555,31.290041
922,联华超市(百佛店),021-63801205,嘉定区,曹安公路1950,121.35876999999999,31.255427
923,联华超市(阳光威尼斯三期西南),021-61495121,普陀区,金鼎路1828号,121.36644,31.258975
924,联华超市(中山北路),021-61435131,闸北区,中山北路808乙,121.45815800000001,31.259565000000002
925,联华超市(闵行店),021-34050262,闵行区,兰坪路230,121.418044,31.005067999999998
926,联华超市(羽山路),021-58600210,浦东新区,羽山路676-678,121.54307800000001,31.232596
927,联华超市(张桥店),021-38420178,浦东新区,博兴路998,121.59395,31.266009999999998
928,联华超市(春申大厦东北),021-64120454,闵行区,都市路4690号,121.39209199999999,31.102484000000004
929,联华超市(龙缘公寓南),021-64570590,徐汇区,龙华路3160,121.447869,31.17131
930,联华超市(真金店),021-66406098,宝山区,真金路1041号B座,121.40586100000002,31.28353
931,联华超市(福海店),021-59167864,嘉定区,福海路286-302号,121.249691,31.367990999999996
932,联华超市(康定路店),021-52560524,静安区,康定路1445,121.43060200000001,31.228996000000002
933,联华超市(枫林店),021-34160211,徐汇区,医学院路73,121.45537,31.199415000000002
934,联华超市(巨野店),021-38820482,浦东新区,巨野路237之1-2,121.54588999999999,31.240679999999998
935,联华超市(双桥路),021-68979268,浦东新区,双桥路909,121.608084,31.284653000000002
936,联华超市(华高店),021-38980340,浦东新区,巨峰路华高一村90号,121.614269,31.28122
937,联华超市(梅川店),021-62645381,普陀区,梅川路788号,121.39561,31.239459999999998
938,联华超市(古北路),021-62281106,长宁区,古北路239,121.400433,31.212691999999997
939,联华超市(新闸路店),021-33060079,黄浦区,新闸路233,121.46783500000001,31.238914
940,联华超市(东城家园东),021-50452332,浦东新区,杜鹃路52,121.547102,31.201743
941,联华超市(五里桥店),021-53520922,卢湾区,局门路363-365,121.48038500000001,31.207566999999997
942,联华超市(龙茗店),021-54789386,闵行区,龙茗路1420,121.384428,31.146071999999997
943,联华超市(兴国店),021-54560076,徐汇区,兴国路277,121.4378,31.204646999999998
944,联华超市(安顺路),021-32230157,长宁区,安顺路154,121.41821000000002,31.201628999999997
945,联华超市(富民店),021-62792666,静安区,富民路45-47,121.450078,31.221425
946,联华超市(秀龙路店),021-37442041,奉贤区,江海路387,121.45776699999999,30.908631
947,联华超市(景谷店),021-34050317,闵行区,景谷路162-164,121.403726,31.013877
948,联华超市(同济大学店),,杨浦区,赤峰路72号,121.49983,31.280878
949,联华超市(仙霞路),021-62913177,长宁区,仙霞路1205,121.37464399999999,31.208090000000002
950,联华超市(丰庄路店),15026651034,嘉定区,丰庄北路399号,121.36535,31.249654999999997
951,联华超市(新州店),021-52520045,静安区,余姚路169,121.440425,31.235986999999998
952,联华超市(博兴店),021-38710104,浦东新区,博兴路490,121.583734,31.265034000000004
953,联华超市(栖霞店),021-50540749,浦东新区,栖霞路268,121.52208,31.23811
954,联华超市(安顺店),021-62940995,长宁区,安顺路290,121.41275,31.200059999999997
955,联华超市(通联苑西北),021-50344026,浦东新区,博山东路184-186,121.560709,31.247538
956,联华超市(南桥菜场路),021-67190712,奉贤区,解放西路289,121.451872,30.912964000000002
957,联华超市(铜川店),021-52620068,普陀区,铜川路2005,121.382126,31.253368
958,联华超市(海申店),021-57707813,闵行区,张虹路129-3,121.41238799999999,31.189083
959,联华超市(名都路),021-64605875,闵行区,名都路36弄14,121.390799,31.106583
960,联华超市(龙居花苑北区东),021-50341760,浦东新区,栖山路1389,121.56220400000001,31.255821
961,联华超市(黄陵小区东南),021-66250848,普陀区,甘泉路662,121.42559299999999,31.261498
962,联华超市(平凉店),021-35093333,杨浦区,平凉路900,121.529945,31.259527000000002
963,联华超市(三林远迎店),021-50633496,浦东新区,三林路1647,121.526335,31.147622
964,联华超市(仓汇路),021-67814418,松江区,仓汇路388-390,121.20218,31.017488
965,联华超市(七宝店),021-34100054,闵行区,漕宝路2588号,121.35035500000001,31.156218
966,联华超市(塔城店),021-39910191,嘉定区,塔城路802号,121.238672,31.372794
967,联华超市(安亭店),021-34010135,徐汇区,建国西路615-2,121.44800500000001,31.201323
968,联华超市(友谊路),021-56602906,宝山区,友谊路164,121.48133899999999,31.404153000000004
969,联华超市(卫清店),021-57263929,金山区,板桥西路1488,121.31976,30.727791999999997
970,联华超市(妙境店),021-38920020,浦东新区,妙境路750号,121.69174699999999,31.187117999999998
971,联华超市(东辉店),021-38820451,浦东新区,博山东路24号,121.55946999999999,31.2469
972,联华超市(华富街),021-59796161,青浦区,华富街423,121.22675,31.24339
973,联华超市(乐都西路),021-57705842,松江区,乐都路669-671,121.238423,31.013917
974,联华超市(新凤北路),021-59796422,青浦区,新凤北路204,121.22486799999999,31.241201
975,联华超市(松江中山中路),,松江区,中山中路79弄平高世贸中心商务楼,121.23563,31.006266999999998
976,联华超市(海亨店),021-36060063,宝山区,共和新路5467、5477,121.44253799999998,31.330194
977,联华超市(申畅国际商务楼南),021-52301698,长宁区,新华路689,121.419817,31.205089
978,联华超市(御桥路),021-50839465,浦东新区,御桥路73,121.53253799999999,31.149376
979,联华超市(万邦店),021-50911121,浦东新区,白杨路540-544号,121.55602900000001,31.201826
980,联华超市(黄渡店),021-59590927,青浦区,绿苑路5号,121.2152,31.266378000000003
981,联华超市(大华店),021-66670754,宝山区,华灵路833,121.422921,31.279035999999998
982,联华超市(奉城店),021-37551354,奉贤区,奉城镇,121.657021,30.908819
983,联华超市(象州店),021-37990449,金山区,象州路109,121.34629299999999,30.710369
984,联华超市(柳城店),021-57952838,金山区,柳城路92号,121.34810900000001,30.713209000000003
985,联华超市(纪旺店),021-52634112,闵行区,纪高路535-539号,121.270524,31.237834000000003
986,联华超市(淞南店),021-36140142,宝山区,长逸路730,121.48274599999999,31.336443
987,联华超市(临江店),021-56104878,宝山区,东林路240号,121.49345600000001,31.405381
988,联华超市(凤阳店),021-33100051,黄浦区,凤阳路369-1,121.469471,31.233438
989,联华超市(新长阳店),021-35093200,杨浦区,长阳路1191、1195,121.52630500000001,31.266226
990,联华超市(程桥店),021-32070073,长宁区,程家桥路26-32、36,121.372037,31.189965
991,联华超市(上中西路店),021-54813019,闵行区,上中西路1280,121.40766200000002,31.130143
992,联华超市(丁香路),021-58332077,浦东新区,丁香路1209,121.559513,31.228738
993,联华超市(昌化店),021-32270035,静安区,昌化路575-577号,121.44845,31.24045
994,联华超市(阳光花城同景苑东南),021-58585010,浦东新区,云雅路379-381,121.67653100000001,31.243065
995,联华超市(虹昌路),,浦东新区,虹盛路111,121.681781,31.238088
996,联华超市(高兴店),021-54376758,闵行区,高兴路128号,121.403751,31.113529999999997
997,联华超市(江浦路店),021-65892082,杨浦区,江浦路138-150号,121.53107299999999,31.254339
998,联华(陕北店),021-52610142,静安区,海防路381号,121.44638400000001,31.238202
999,联华超市(百中店),021-34717678,闵行区,中谊路860弄21-22号,121.35348799999998,31.139616999999998
1000,联华超市(周浦店),,浦东新区,康沈路1604号,121.57560500000001,31.117267
1001,联华超市(羽山店),021-68620145,浦东新区,羽山路298,121.54162,31.23155
1002,联华超市(钦州北路),021-64942421,徐汇区,桂林路642-3,121.414171,31.180578000000004
1003,联华超市(文化店),021-55385878,杨浦区,武东路311,121.49108799999999,31.304202000000004
1004,联华超市(保定路),021-65466834,虹口区,保定路48,121.51328899999999,31.25517
1005,联华超市(龙水北路),021-64567077,徐汇区,龙水北路1014,121.448318,31.172914000000002
1006,联华超市(百花店),18717929680,闵行区,莲花路425弄9号,121.399573,31.143462
1007,联华超市(莲花公寓东),021-36333036,普陀区,真北路3725弄12,121.40188,31.285079999999997
1008,联华超市(叶榭店),021-57808890,松江区,叶榭镇叶新公路55号,121.319919,30.947215999999997
1009,联华超市(上海伊人妇科医院北),,金山区,蒙山路1389,121.34228300000001,30.732623999999998
1010,联华超市(隆安店),021-37990766,金山区,隆安路158,121.34925,30.718840000000004
1011,联华超市(裕林店),021-39636538,崇明县,裕盛路三弄5号A区,121.839424,31.520028000000003
1012,联华超市(福州店),021-53530189,黄浦区,浙江中路148,121.47969599999999,31.232492999999998
1013,联华超市(永年店),021-33080480,黄浦区,永年路162号,121.478249,31.21207
1014,联华兴塔店,021-57360233,金山区,兴塔镇新金山公路320号,121.34196999999999,30.741991
1015,联华超市(建德店),021-52959265,普陀区,长征镇建德农贸市场C3,121.35791499999999,31.23739
1016,联华超市(爱博店),021-68744078,浦东新区,东书房路111号2层,121.53368200000001,31.169003000000004
1017,联华超市(鑫宝店),021-56801926,宝山区,杨行镇蕰川路1625弄39号,121.43276100000001,31.369304
1018,联华超市(干巷店),021-57201076,金山区,干巷新溪街南145号,121.236595,30.827981
1019,联华超市(浦驰路),,闵行区,浦驰路620、626,121.500348,31.081936
1020,联华超市(江园路店),021-34303356,闵行区,园路658号,121.49462199999999,31.074064
1021,联华超市(吴漕店),021-61630327,浦东新区,曹路镇顾唐路174-182号1层,121.65706200000001,31.262762
1022,联华超市(桃李家园西块西南),021-68526776,浦东新区,长浜路123,121.504547,31.159543
1023,联华超市(洞泾店),021-57675243,松江区,沪松公路3670号,121.264131,31.081932000000002
1024,联华超市(洞宁店),,松江区,洞宁路639-641,121.27986299999999,31.075801000000002
1025,联华超市(赢城店),021-61676535,闵行区,莘松路958弄大浪湾道35,121.34986599999999,31.105371999999996
1026,联华超市(绿州店),,松江区,莘松路1288弄517号102室,121.34658600000002,31.099373999999997
1027,联华超市(庚诚店),,松江区,莘松路1288弄502号101室,121.346645,31.099390999999997
1028,联华超市(中泽路),021-59757398,青浦区,赵巷镇崧泽村306号,121.16733400000001,31.142103999999996
1029,联华超市(吴兴店),021-54560050,徐汇区,吴兴路272-1,121.44551000000001,31.199211
1030,联华超市(图们店),021-55623333,杨浦区,图们路10-2,121.548506,31.290164
1031,联华超市(双柏路),,闵行区,春都路25幢83号1层,121.42809199999999,31.086309999999997
1032,联华超市(富锦店),021-56931854,宝山区,富锦路1815弄54号,121.43436100000001,31.404145
1033,联华超市(沂南路),021-50905551,浦东新区,南码头路218,121.50797,31.198549
1034,联华超市(商榻店),021-39242603,青浦区,商榻镇商蔡路15号,120.92491399999999,31.115662
1035,联华超市(七莘路),,闵行区,华漕镇北翟路1697号-1,121.33158700000001,31.222728999999998
1036,联华超市(惠南店),021-38000214,浦东新区,通济路150,121.74593999999999,31.04737
1037,Lian Hua生活馆,021-58025986,浦东新区,惠南镇人民西路128号,121.751819,31.049559000000002
1038,联华超市(博华店),021-50610254,浦东新区,莲园路97-119号,121.54605,31.185129999999997
1039,联华超市(都市店),,闵行区,颛兴东路1570,121.408321,31.071023999999998
1040,联华超市(泉口店),021-62384278,长宁区,泉口路208-210、200,121.37624,31.210271999999996
1041,联华超市(航梅店),021-31570689,浦东新区,航梅路699-39,121.578643,31.028585999999997
1042,联华超市(德成店),021-54354209,徐汇区,龙吴路398弄4号3幢,121.449735,31.163064000000002
1043,联华超市(吕巷店),021-37370129,金山区,金张支路4736号,121.179851,30.827371999999997
1044,联华超市(名城店),021-52398702,长宁区,福泉路426-430,121.358851,31.213739
1045,联华超市(瓦屑店),021-58152769,浦东新区,建设路34,121.654225,31.108490000000003
1046,联华超市(龚丰店),021-38923368,浦东新区,川沙龚丰路296号,121.687573,31.257367
1047,联华超市(丽水华庭南),021-67645133,松江区,新桥镇新南路1088弄2,121.33843999999999,31.088653000000004
1048,联华超市(丰登店),021-59900527,嘉定区,丰登路1210,121.282583,31.356082
1049,联华超市(黄楼店),021-38924003,浦东新区,川周公路6341号,121.669068,31.162963
1050,联华超市(灵石店),,静安区,高平路170号~172号,121.42970600000001,31.281108000000003
1051,联华超市(华盛新苑西北),,奉贤区,新奉公路4567-9,121.64691699999999,30.947722
1052,联华超市(蓝天店),021-57742168,松江区,松东路98,121.25582299999999,31.013425
1053,联华超市（康桥新苑店）,021-68192056,浦东新区,沪南路2662-2684号,121.56691599999999,31.138316999999997
1054,联华超市(火车南站店),021-54084196,徐汇区,石龙路649-651号,121.43433999999999,31.152188
1055,联华超市(武西店),021-32200327,长宁区,万航渡路546,121.434475,31.225595000000002
1056,联华超市(杨光店),021-50540657,浦东新区,商城路518号,121.516754,31.230221000000004
1057,联华超市(昌邑路店),,浦东新区,东方路45-47号,121.51996299999999,31.242061
1058,联华超市(绿苑五村北),021-69582438,嘉定区,杭桂路1127-1135号1层,121.206259,31.278003000000002
1059,联华超市(杨高北路店),021-50410800,浦东新区,学前街217-225,121.58463400000001,31.347294
1060,联华超市(上海碧悦城市酒店南),021-50758116,浦东新区,金桥路1480-13,121.58811000000001,31.250687
1061,联华超市(和龙新苑东),021-58674982,浦东新区,和龙路621-627,121.57515500000001,31.339152000000002
1062,联华超市(潼港四村东兴苑北),021-58671768,浦东新区,花山路612,121.575175,31.347548
1063,联华超市(一二八纪念路),021-66976811,宝山区,一二八纪念路700,121.45218100000001,31.326247
1064,联华超市(新闸店),021-52610075,静安区,新闸路1057,121.45593000000001,31.23302
1065,联华超市(竹园店),021-68670554,浦东新区,潍坊路357-2,121.53331299999999,31.228185999999997
1066,联华超市(东宝店),021-66600457,虹口区,东宝兴路405-411,121.474078,31.264207
1067,联华超市(彭镇店),021-58241458,浦东新区,泥城镇马五公路379号,121.798833,30.906038
1068,联华超市(平城店),021-39531769,嘉定区,平城路305,121.25751299999999,31.399440000000002
1069,联华超市(虎山店),021-35010957,杨浦区,打虎山路74-2,121.508375,31.272743
1070,联华超市(梅园店),021-39910161,嘉定区,外冈镇梅园路302号,121.24420400000001,31.386273
1071,联华超市(紫薇店),021-38950030,浦东新区,紫薇路31,121.61348100000001,31.200232
1072,联华超市(张江店),021-38950083,浦东新区,川北公路3076,121.61343600000001,31.206258000000002
1073,联华超市(西凌店),021-53590024,黄浦区,西凌家宅路70,121.4869,31.20427
1074,联华超市(灵泉店),021-38870029,浦东新区,南泉路380,121.522292,31.219678000000002
1075,联华超市(岭南店),021-36120046,宝山区,共康东路376-388号,121.45774899999999,31.32279
1076,联华超市(府永店),021-54711626,闵行区,安宁路385号A22号,121.41581699999999,31.015957
1077,联华超市(香花店),021-52540051,长宁区,新华路372,121.42543,31.20365
1078,联华超市(台儿庄路),021-50550135,浦东新区,台儿庄路558,121.595876,31.256363
1079,联华超市,,虹口区,凉城街道奎照路783号,121.47069499999999,31.300428000000004
1080,联华超市,,宝山区,顾村镇顾北东路427号,121.40995500000001,31.358157000000002
1081,联华超市,,奉贤区,南桥镇解放中路361号,121.459422,30.915153999999998
1082,联华超市,,松江区,荣乐西路1635弄玉乐小区北门,121.198741,31.016163
1083,联华超市,,松江区,叶榭镇张泽镇南路39号,121.276491,30.927021000000003
1084,联华超市,,静安区,康定路1455号,121.430544,31.228853000000004
1085,联华超市,,浦东新区,川沙新镇药师新村路,121.682045,31.201519
1086,联华超市,,浦东新区,合庆镇庆利路427号,121.725753,31.231645
1087,联华超市,,杨浦区,平凉路1136号静安面包房,121.53380800000001,31.2614
1088,联华超市,,宝山区,何家湾路108号,121.492405,31.329824
1089,联华超市,,静安区,大沽路358号,121.467087,31.225728999999998
1090,联华超市,,静安区,安远路728弄23号106室,121.43333200000001,31.236084
1091,联华超市,15252343699,浦东新区,川周公路8216号,121.61004399999999,31.139469000000002
1092,联华超市,021-50719989,浦东新区,唐镇云雅路555弄1号,121.67858999999999,31.243502000000003
1093,联华超市,,嘉定区,封浜镇吴杨路155号,121.295511,31.268597999999997
1094,联华超市,,杨浦区,江浦路38号,121.529172,31.256309
1095,联华超市,,宝山区,场镇路202号,121.48961200000001,31.405457000000002
1096,联华超市,,静安区,灵石路733弄,121.43966,31.285455
1097,联华超市,,杨浦区,黄兴路18号附近,121.532928,31.270383000000002
1098,联华超市,,闵行区,华漕镇纪翟路1068号,121.285784,31.212086
1099,联华超市,,宝山区,顾北东路430号,121.409958,31.357827
1100,联华超市,13818557173,静安区,平陆路298-308号101室,121.44716299999999,31.284583
1101,联华超市,,嘉定区,霍城路1725号,121.22653799999999,31.368881
1102,联华超市,,嘉定区,中泉路与恒飞路交叉口西北50米,121.15715800000001,31.362751
1103,联华超市,,浦东新区,川沙路5400附近,121.66654399999999,31.279897
1104,联华超市,,杨浦区,国定路38号,121.51616999999999,31.294040000000003
1105,联华超市,,宝山区,淞发路50号附近,121.48009499999999,31.339603999999998
1106,联华超市,,松江区,方塔路5号,121.24841,31.012240000000002
1107,联华超市,13524133611,徐汇区,大木桥路118号,121.461394,31.199858000000003
1108,联华超市,,浦东新区,行南公路南50米,121.580302,31.325265
1109,联华超市,17317455896,松江区,中山中路196弄58号,121.234066,31.008321999999996
1110,联华超市,,嘉定区,安亭镇东港路111号,121.218203,31.262495
1111,联华超市,,虹口区,虹口乍浦路342号,121.48695500000001,31.250162
1112,联华超市,,奉贤区,航塘公路1249附近,121.59665700000001,30.993821999999998
1113,联华超市,021-33559687,松江区,方松街道龙马路118弄103号,121.229597,31.05425
1114,快客便利店(歌林店),,静安区,万荣路73号,121.44925500000001,31.27021
1115,快客便利店(大杨),,浦东新区,南团公路3333号,121.74626200000002,30.962865999999998
1116,快客便利店(黄河路店),13042156578,黄浦区,黄河路283号承兴里沿街商铺,121.468577,31.236978000000004
1117,快客便利店(长寿路店),,静安区,余姚路328号-1层,121.437583,31.235359000000003
1118,快客便利店(志豪店),021-54703096,闵行区,安宁路357号,121.416278,31.014768
1119,快客便利店(剑川路店),,闵行区,剑川路90-1附近,121.42492800000001,31.027455
1120,快客便利店(思珍店),021-38722359,浦东新区,金湘路333号113室,121.61036899999999,31.254563
1121,快客便利店(华丰路店),021-58391918,浦东新区,华丰路13号(华丰路浦东南路),121.507728,31.192242999999998
1122,快客便利店,,松江区,泗陈公路388弄,121.270766,31.121311
1123,快客便利店,,闵行区,颛兴东路云部落大厦1313号快客便利店,121.417498,31.073622999999998
1124,快客便利店(顾新路),,宝山区,顾新路7号,121.39704099999999,31.348631
1125,快客便利店(景凤路店),021-56916587,静安区,景凤路226-228号,121.46264099999999,31.320376
1126,快客便利店(建峰店),021-58921175,浦东新区,新川路734号(川沙进贤路新川路),121.69211299999999,31.190996999999996
1127,快客便利店(敏敏店),021-33873008,宝山区,三泉路1890-2号,121.436605,31.332096000000003
1128,快客便利店(祁连欣苑东),,宝山区,聚丰园路470号(祁连欣苑东),121.377572,31.314411
1129,快客便利店(漕河泾店),13817011135,闵行区,東兰路258号-7,121.40120300000001,31.157543
1130,快客便利店(莲花路),15000728552,闵行区,莲花路1328号A-106,121.396371,31.157396999999996
1131,快客便利店(莘朱店),,闵行区,虹梅南路986-3,121.423456,31.124714
1132,快客便利店(丰华园店),,浦东新区,东方路3601号丰华园2号楼,121.510251,31.188111
1133,快客便利店(金豫路),021-50591025,浦东新区,金桥经济技术开发区金豫路100号,121.614088,31.255383000000002
1134,快客便利店(顾唐二店),021-20225193,浦东新区,顾唐路1900号客服中心底层餐厅,121.663774,31.228126
1135,快客便利店,13661797656,普陀区,长寿路822弄59号,121.42956399999998,31.235567
1136,快客便利店(普政店),021-62654639,普陀区,铜川路1321号底层101室(大渡河路1668号),121.395256,31.250543
1137,快客便利店(虬泾路),021-67635487,松江区,虬泾路76-2号,121.330389,31.134128000000004
1138,快客便利店(三铭杰座东),,松江区,松江工业区松卫北路888号,121.261556,31.018340000000002
1139,快客便利店(安桥店),13916263191,徐汇区,中山西路1698弄明园小安桥12号(近宜山路)大门口,121.42335600000001,31.185154999999998
1140,快客便利店(泰成商务楼西南),15000357942,徐汇区,沪闵路9502,121.43398799999999,31.165927000000003
1141,快客便利店(如飞店),,杨浦区,杨树浦路2290号,121.54861299999999,31.265376
1142,快客便利店(上海科雅国际大酒店南),,浦东新区,张杨北路5642号,121.57449799999999,31.345263
1143,快客便利店(新龙路店),13817586992,闵行区,新龙路1333弄万科七宝国际17号,121.33681599999998,31.151505
1144,快客便利店(松江环城路店),021-67830579,松江区,环城路515号玩酷商业广场F1层,121.25436,31.009802
1145,快客便利店(盛石店),021-33719175,宝山区,盛石路270号,121.41099399999999,31.457065999999998
1146,快客便利店,,宝山区,纬地路110号附近,121.403671,31.326615999999998
1147,快客(城中路店),13661982981,嘉定区,城中路197-12号附近,121.250001,31.379724
1148,快客便利店(虹莘路店),13816952118,闵行区,虹莘路2036号,121.38145,31.138661
1149,快客便利店(厚群店),021-51597129,闵行区,银春路1955弄121号,121.39334099999999,31.024635999999997
1150,快客便利店(紫藤路店),,闵行区,紫藤路238号-118室,121.364355,31.174108
1151,快客便利店,,闵行区,浦江郊野公园内,121.50241799999999,31.061171
1152,快客便利店,,浦东新区,川沙新镇川图路300号28栋101室,121.708257,31.154473
1153,快客便利店(台儿庄店),,浦东新区,新金桥路58号银东大厦1层,121.593324,31.246508000000002
1154,快客便利店(杨东店),,浦东新区,德州路213号,121.495787,31.168429999999997
1155,快客便利店,,浦东新区,曹路镇金海路2447号宝龙城市广场二期,121.65083999999999,31.265764
1156,快客便利店(草高支路),021-65879438,浦东新区,外高桥保税区草高支路1033号,121.567307,31.350336
1157,快客便利店(沪新店),021-50343371,浦东新区,五莲路440-1号,121.583897,31.271375
1158,快客便利店,,青浦区,尚泰路226号附近,121.237691,31.182236
1159,快客便利店(和珍店),021-65629583,杨浦区,本溪路151-4号,121.515336,31.276128999999997
1160,快客便利店(世博源店),021-31190212,浦东新区,上南路168号世博源1区1层108室,121.491879,31.186759000000002
1161,快客便利店,13917759808,浦东新区,秋雨路569号丽都璟庭小区,121.81574099999999,30.906271999999998
1162,快客便利店,021-61183279,浦东新区,老芦公路与芦安路交叉口西150米,121.85021499999999,30.865071
1163,快客便利店,,青浦区,赵重公路2777号附近,121.18513200000001,31.194592999999998
1164,快客便利店(碧江路),021-54750007,闵行区,碧江路321号附近,121.40276000000001,31.007357
1165,快客便利店,021-64833629,徐汇区,虹漕南路99弄,121.413601,31.163027000000003
1166,快客便利店(虹纺小区南),021-62614708,长宁区,虹古路377弄21-1号,121.389269,31.202613
1167,快客便利店,,黄浦区,福建中路213号,121.481293,31.23422
1168,快客便利店,021-34322736,闵行区,金汇南路225号(近虹泉路),121.37756999999999,31.17019
1169,快客便利店(梅陇五村南),,徐汇区,上中西路474,121.421976,31.133347999999998
1170,快客便利店(贵州路),,黄浦区,贵州路208号,121.475784,31.237589
1171,快客便利店(师大店),021-62450026,普陀区,中山北路3671弄1～633号华东师大一村,121.410123,31.225709000000002
1172,快客便利店,,浦东新区,川周公路4305号,121.58078400000001,31.120172999999998
1173,快客便利店(青杉路店),021-64498755,闵行区,虹井路288号乐虹坊精致生活广场F1,121.371633,31.176674
1174,快客便利店,,浦东新区,浙桥路277-3,121.60084499999999,31.252562
1175,快客(交通西路店),,普陀区,中山北路1226-1号,121.44676000000001,31.257263000000002
1176,快客便利店(语申店),021-34633723,闵行区,都市路1950号强劲都市生活广场,121.411926,31.058341
1177,快客便利店(高台店),021-59152729,嘉定区,高台路1216号(妇幼保健医院),121.246752,31.349834
1178,快客便利店(商学店),021-67105657,奉贤区,奉浦社区奉浦大道123号商学院内,121.45643799999999,30.940790999999997
1179,快客便利店(真光路),,普陀区,真光路1171号,121.38028999999999,31.241979999999998
1180,快客便利店(中艺花园东南),,宝山区,海江路122-1,121.499606,31.398599
1181,快客便利店(东川路店),021-54738200,闵行区,东川路800号63幢1层106室,121.431079,31.023291999999998
1182,快客便利店(国定东路店),,杨浦区,国定东路277号,121.520453,31.297618
1183,快客便利店,,普陀区,枣阳路251弄84号,121.40111200000001,31.234204
1184,快客便利店,021-67809208,松江区,叶榭镇车亭公路博伦市场1238号,121.31643000000001,30.955406
1185,快客便利店(航头路),15901905459,浦东新区,航头镇航头路1263号,121.58993000000001,31.031894
1186,快客便利店(大运店),021-65631109,杨浦区,中山北二路101-1号,121.51918899999998,31.285256
1187,快客便利店(南汇二店),021-68020852,浦东新区,学海路215号,121.78608799999999,31.051264
1188,联华快客(真源店),021-62066496,普陀区,真光路1327号,121.38171799999999,31.244753999999997
1189,快客便利店(城熙店),,浦东新区,外高桥保税区5号门希雅路330号1层B部位,121.61988400000001,31.320811
1190,快客便利店(黄山店),021-33776144,杨浦区,大连路852号(大连路周家嘴路),121.508343,31.263294000000002
1191,快客便利店(东方店),021-58754375,浦东新区,北园路138号1楼,121.522275,31.204588
1192,快客便利店(天宝华庭北),021-65214531,虹口区,四平路幸福村316号,121.498728,31.273691999999997
1193,快客便利店(长虎店),021-56754884,宝山区,长江西路1248号(长江西路虎林路),121.456979,31.337540999999998
1194,快客便利店(中山东二路),021-53072156,黄浦区,外滩街道居委,121.516006,31.21185
1195,快客便利店(宏明雅舍东南),021-64596683,闵行区,漕宝路1745,121.36990700000001,31.158306
1196,快客便利店(屹立家园东),021-56429749,宝山区,长临路1075,121.43445,31.326695
1197,快客便利店(城南路),,浦东新区,城南路374,121.702956,31.19203
1198,快客便利店(民星路),021-65574608,杨浦区,民星路538之2-3,121.53531799999999,31.311624
1199,快客便利店(清水颐园东),,嘉定区,裕民路1010号,121.238418,31.367973
1200,快客便利店(三铭小区东南),,虹口区,唐山路575,121.50589699999999,31.255544
1201,快客(凇良店),021-56141475,宝山区,长江路822号(长江路淞良路),121.48578899999998,31.347594
1202,快客便利店(顾北东路),021-36044236,宝山区,顾北东路502,121.40763000000001,31.357219
1203,快客(斜峰店),021-64864609,徐汇区,斜土路2526,121.44593400000001,31.189396000000002
1204,快客便利店(春申万科假日风畹町路100弄A南),021-54378836,闵行区,畹町路62-1,121.40296399999998,31.103919
1205,快客便利店(闵行区农业技术推广站西南),,闵行区,颛桥镇都会路1699号全方位科技园,121.42088600000001,31.059225
1206,快客(沪闵路店),021-54708186,闵行区,沪闵路55号,121.426484,31.000132
1207,快客便利店(绥化路),,宝山区,月浦镇,121.421874,31.420287
1208,快客便利店(新郁路),021-59199065,嘉定区,新郁路250,121.358833,31.244747999999998
1209,快客便利店(海燕新村南),021-58015597,浦东新区,南团公路105附近,121.76409199999999,31.038363
1210,快客便利店(明杨豪苑北),,虹口区,欧阳路270,121.48793700000002,31.268368
1211,快客便利店(罗秀路),,徐汇区,罗秀路1179,121.42293899999999,31.129385
1212,快客便利店(西环路),,闵行区,西环路357,121.36582,31.10835
1213,快客便利店(广中西路),,闸北区,广中西路919,121.43758999999999,31.275387
1214,快客便利店(贝宁之星超市),,闸北区,沪太路1200附近,121.42565900000001,31.278074
1215,快客便利店(中山北路),021-56081070,普陀区,中山北路1226-1,121.44676000000001,31.257263000000002
1216,快客便利店(华夏茗苑西南),021-64616916,闵行区,宝南路518,121.356779,31.150382
1217,快客便利店(静安恬园),,静安区,延平路523,121.436383,31.235219
1218,快客便利店(七莘路),021-54867918,闵行区,七莘路2592-2596,121.371119,31.11941
1219,快客便利店(华志路),,青浦区,华志路803,121.22532199999999,31.231196999999998
1220,快客便利店(苏召路),,闵行区,杜行镇,121.495652,31.053098
1221,快客便利店(上海市杨浦区市东医院南),021-65061729,杨浦区,国和路1308-1,121.537499,31.318234000000004
1222,快客(老沪闵路店),021-64253410,徐汇区,老沪闵路742号(近百色路),121.429222,31.142539000000003
1223,快客(金鼎店),,嘉定区,金鼎路1368号,121.375897,31.25825
1224,快客便利店(明申商务广场东北),021-33686729,徐汇区,漕宝路329-4,121.41264199999999,31.164640999999996
1225,快客便利店(民星社区卫生服务站东北),021-58365312,杨浦区,嫩江路820弄2-4,121.54241200000001,31.315291
1226,快客(武康店),,静安区,武宁南路247号,121.43413999999999,31.229258
1227,快客便利店(华山路),,长宁区,华山路1226附近,121.433167,31.210213
1228,快客便利店(马当路),021-63150273,黄浦区,马当路602,121.476009,31.210036
1229,快客(四川一店),,黄浦区,四川中路620号(近香港路),121.486379,31.242221
1230,快客(元凤店),15801781659,闵行区,程家桥路185-2,121.373502,31.187137
1231,快客(申滨店),021-34520696,闵行区,申滨路960号,121.308252,31.209759000000002
1232,快客(佳林路),021-50320222,浦东新区,金桥镇佳林路171号,121.608802,31.267808000000002
1233,快客便利店(制造局路),021-63120500,黄浦区,制造局路529,121.484867,31.203853000000002
1234,快客便利店(内环高架路出口),021-32561622,长宁区,中山西路947-3,121.413545,31.200393
1235,快客便利店(宝铭路),,闵行区,宝铭路82号,121.36734299999999,31.139386
1236,快客便利店(宝仪花苑西),021-34151297,闵行区,新镇路876弄62,121.363373,31.149009000000003
1237,快客便利店(罗山四村东北),,浦东新区,德平路82,121.560921,31.250082
1238,快客(碧江路店),021-64620981,闵行区,碧江路500号,121.399625,31.014764000000003
1239,联华快客(侃韵店),021-58622584,浦东新区,高桥镇夏碧路84号,121.58929599999999,31.339147999999998
1240,快客(平原街),021-57762213,松江区,小昆山镇平原街178号,121.136776,31.033757
1241,快客便利店(明欣公寓西),021-62901789,长宁区,哈密路100弄8,121.37778300000001,31.218703
1242,快客便利店(乾心园西北),021-56509773,宝山区,场联路202,121.41002900000001,31.307602000000003
1243,快客便利店(方中路),,嘉定区,嘉松北路4193号,121.216356,31.320173999999998
1244,快客(万顺匪�原墅东�?,,闵行区,都市路747号,121.419133,31.042693
1245,快客便利店(鹤旋路),,嘉定区,封浜镇,121.29483,31.269946
1246,快客便利店(东华园西南),021-56511057,宝山区,沪太支路1336,121.418241,31.299927
1247,快客便利店(顺恒国际商业广场北),,闵行区,沪星路291号万得城附近,121.338498,31.163921999999996
1248,快客便利店(蝶恋园南),021-58711836,浦东新区,栖山路1885,121.572694,31.261453999999997
1249,快客便利店(胶州路),021-32180347,静安区,新闸路1819,121.443068,31.227605
1250,快客便利店(牡丹江路),021-56671327,宝山区,淞滨路87号,121.49873500000001,31.374972999999997
1251,快客便利店(香山新村东南街坊西北),021-58337182,浦东新区,灵山路1832,121.57136899999999,31.241731
1252,快客便利店(徽宁路),021-53070815,黄浦区,制造局路287-2,121.484678,31.207514
1253,快客便利店(局门路),021-63051897,黄浦区,局门路201,121.48061100000001,31.206592999999998
1254,快客(周康店),15800981565,浦东新区,康桥镇康沈路463号,121.57188799999999,31.138383
1255,快客便利店(珠湖路),021-59256392,青浦区,浦泰路182号,121.048905,31.120554
1256,快客便利店(三泉公寓西南),021-56433581,闸北区,长临路8-10,121.438217,31.310692
1257,快客便利店(古桐五村东),021-50790869,浦东新区,紫薇路11,121.612925,31.199541999999997
1258,快客便利店(新工南路),021-57898099,松江区,新工路111号,121.080242,30.935997999999998
1259,快客便利店(张杨路),021-33847382,浦东新区,张杨路2987,121.567007,31.247373
1260,快客便利店(亭汇花苑南),,松江区,沪松公路1399弄107,121.319875,31.136609999999997
1261,快客便利店(上海悦隆酒店西北),021-54883358,闵行区,中春路6785号华贸商务101室,121.348984,31.133824
1262,快客便利店(澄浏公路),021-59558662,嘉定区,澄浏公路481,121.273606,31.414246000000002
1263,快客便利店(淞宝路),021-56569207,宝山区,淞宝路759,121.50126399999999,31.391481
1264,快客便利店(莎海惠晨苑西),,浦东新区,南团公路28号,121.76353999999999,31.040547999999998
1265,快客便利店(闻喜路),021-56816664,闸北区,闻喜路678,121.45438,31.308478000000004
1266,快客便利店(外钱公路),,嘉定区,外冈镇外钱公路1936,121.13253999999999,31.365130999999998
1267,快客便利店(召楼路),021-52961661,闵行区,召楼路2020,121.53944299999999,31.055625
1268,快客便利店(永盛路),021-59966319,嘉定区,永盛路2551弄16,121.24311599999999,31.367051
1269,快客便利店(嫩江路),021-65574948,杨浦区,嫩江路889,121.53725700000001,31.314515999999998
1270,快客便利店(上海江城医院北),,杨浦区,周家嘴路3036,121.52993700000002,31.275160999999997
1271,快客便利店(蕃瓜弄社区卫生服务站南),021-32526239,闸北区,天目中路765-1,121.460677,31.246009
1272,快客便利店(金迎店),,普陀区,金迎路718号1幢1楼,121.33533500000001,31.288606
1273,快客便利店(李子园大厦东北),021-56082114,普陀区,交通路4664号,121.39125,31.268217
1274,快客便利店(国展路),021-31217013,浦东新区,国展路311号J6-A,121.475429,31.179593
1275,快客便利店(平吉一村东南),021-34174671,闵行区,古龙路1168,121.383342,31.145073999999997
1276,快客便利店(共泉路),021-36120556,宝山区,三泉路1850号,121.43741599999998,31.330337
1277,快客便利店(同普大厦西),,普陀区,千阳路209号附近,121.369451,31.233036
1278,快客便利店,021-62689088,长宁区,沪青平公路58号101室,121.35670800000001,31.183219
1279,快客便利店(华坪路),021-54706424,闵行区,华坪路18,121.424146,31.001215000000002
1280,快客便利店(梓康路),,浦东新区,梓康路317弄1-13号,121.56541399999999,31.121763
1281,快客便利店,,浦东新区,枣庄路488号,121.57592199999999,31.253815999999997
1282,快客便利店(颐正大厦西南),021-52666042,宝山区,新村路681,121.420313,31.264986999999998
1283,快客便利店(天翔苑西北),,杨浦区,中原路22号,121.532149,31.306571999999996
1284,快客便利店(隆昌路),,杨浦区,隆昌路10,121.55145900000001,31.268131
1285,快客便利店(西林北路),021-57730248,松江区,西林北路886,121.22123400000001,31.014621
1286,快客便利店(外青松店),,青浦区,外青松公路7988号17号底楼,121.186778,31.098755
1287,快客便利店(同济路),,宝山区,同济路202,121.49166399999999,31.375177
1288,快客便利店,,普陀区,中江路106号一楼17室,121.39346100000002,31.220886
1289,快客便利店(金吉店),021-58540614,浦东新区,金吉路789号欧姆龙公司2层,121.632181,31.265889
1290,快客便利店(梦华店),021-63784532,黄浦区,梦花街219号底层西间(仪凤弄),121.485991,31.218326
1291,快客便利店(东港店),021-55127953,虹口区,东大名路358号国际港务大厦1层,121.49583,31.246601000000002
1292,快客便利店(姚家车路),021-54133087,闵行区,中春路7198号凯斯国际商务中心A栋1层1号,121.346248,31.140672
1293,庭冠便利店,021-50676755,浦东新区,行南路349弄100号102室,121.58751399999998,31.325644
1294,快客便利店(宁强路),021-62243027,普陀区,宁强路198号,121.42608100000001,31.252664000000003
1295,快客(中原店),021-65586744,杨浦区,中原路85-2号,121.53176,31.312829999999998
1296,快客便利店(普惠路),021-69961321,嘉定区,裕民路1010号,121.238418,31.367973
1297,快客便利店(安家路),,宝山区,月浦镇德都路200-22号,121.425054,31.410660999999998
1298,快客便利店(学府街),021-55398990,杨浦区,学府街90号,121.492779,31.301063
1299,快客便利店(丰庄西路),,嘉定区,丰庄西路397-1号,121.353917,31.244456
1300,快客便利店,,普陀区,梅岭南路161号,121.407598,31.233678
1301,快客便利店(真北路),021-61313301,普陀区,真北路988号创邑金沙谷内,121.38354,31.235398999999997
1302,快客便利店(西园路),021-54940771,闵行区,西园路128弄10号,121.373172,31.099363
1303,快客便利店(猛将弄东北),021-63071829,虹口区,吴淞路415,121.48878300000001,31.250895
1304,快客便利店(敏敏店),021-36120556,宝山区,三泉路1850号,121.43741599999998,31.330337
1305,快客便利店(昌鑫世纪园南),021-56814248,宝山区,一二八纪念路690-1号,121.451959,31.326118
1306,快客便利店(汇秀公寓南),,宝山区,共和新路5493,121.442376,31.330540000000003
1307,快客便利店,021-36622768,宝山区,郁江巷路133号,121.47785900000001,31.342615000000002
1308,快客(平溪路店),021-62610358,长宁区,平溪路41-43号(剑河路平溪路),121.37183200000001,31.193062
1309,快客便利店(宛平南路),021-64879531,徐汇区,宛平南路806号,121.45078899999999,31.184878
1310,快客便利店(东太路),,宝山区,罗南二村东太路124号126号,121.36551599999999,31.386143
1311,快客便利店(吴中路),021-54247248,徐汇区,古井路30-1,121.417201,31.188529
1312,快客便利店(淀浦河路),021-67629472,松江区,沪亭南路200弄80号112室,121.327818,31.124765999999997
1313,快客便利店(星富街),021-54866315,闵行区,漕宝路2108-1号,121.362377,31.157578000000004
1314,快客便利店(杨新东路),021-68320814,浦东新区,杨新东路14号,121.498101,31.165027000000002
1315,快客便利店(甘肃店),021-63259212,闸北区,甘肃路130号(甘肃路开封路),121.474558,31.243781
1316,快客便利店(新侨医院东南),021-58625713,浦东新区,季景路9,121.58646599999999,31.34048
1317,快客便利店(大林路),,黄浦区,大林路332,121.483958,31.212325
1318,快客便利店,,虹口区,广纪路153,121.482252,31.283628000000004
1319,快客便利店(茸平路),,松江区,茸平路511,121.24921,31.03472
1320,快客便利店(荣乐西路),021-33526577,松江区,荣乐西路405号1层,121.203946,31.015946999999997
1321,快客便利店(长宁路),021-52726345,长宁区,长宁路1253,121.412977,31.217196
1322,快客便利店(共康东路),,宝山区,共康东路322,121.45951200000002,31.322903999999998
1323,快客便利店(证大家园西),021-68974786,浦东新区,巨峰路667弄134号,121.599898,31.282281
1324,快客便利店(梅陇西路),021-54815699,闵行区,梅陇西路508,121.40351499999998,31.130395
1325,快客便利店(盛源花园东南),021-34317701,闵行区,罗锦路447,121.40754,31.121523999999997
1326,快客便利店,,宝山区,祁北路附近,121.349158,31.42192
1327,快客便利店(南新东园西南),021-50671298,浦东新区,高行镇行南路900弄南新东园886号,121.58665400000001,31.329653999999998
1328,快客便利店(北康路),021-56409114,宝山区,北康路8,121.43843400000002,31.327001
1329,快客(素华店),021-33660913,黄浦区,瞿溪路621号(汝南街70弄小区南),121.48481899999999,31.202218
1330,快客(海星店),021-65879438,浦东新区,上南路4277号-101室,121.51040800000001,31.143833
1331,快客(中谊路),021-64790188,闵行区,中谊路769号-2号,121.357929,31.140558000000002
1332,快客便利店(华丰路),,浦东新区,华丰路19,121.50779399999999,31.192135999999998
1333,快客(肇瑞店),021-64160971,徐汇区,肇嘉浜路97号,121.464874,31.203407000000002
1334,快客便利店(轻舟公寓东南),021-55067375,杨浦区,邯郸路446弄1-1号,121.51101499999999,31.298997999999997
1335,快客便利店(美恒大厦北),18202153155,闵行区,吴中路378-9,121.41286399999998,31.186535
1336,快客便利店(斯米克大厦东南),,浦东新区,乳山路126-1,121.52180700000001,31.235259999999997
1337,快客便利店,021-69106587,嘉定区,曹安公路2098号109室(美特斯邦威旁),121.34729899999999,31.259043
1338,快客便利店(昌化路),021-62674191,静安区,昌化路320,121.452052,31.237381
1339,快客便利店(美艾路),021-56590506,宝山区,美艾路210,121.362058,31.39378
1340,快客便利店(艾山新村东北),021-68565331,浦东新区,德平路768,121.565844,31.244521000000002
1341,快客便利店(大诚花苑东),021-55678598,杨浦区,国定路289,121.510002,31.295840999999996
1342,快客(双城店),021-56168910,宝山区,双城路81-83号,121.502578,31.394408000000002
1343,快客便利店(梅林路),,宝山区,杨行镇宝杨路3184弄3178号,121.43986000000001,31.374593
1344,快客便利店(如意餐馆西),021-62105682,长宁区,利西路6,121.43216100000001,31.215857
1345,快客便利店(湘江大厦北),021-32300189,长宁区,虹桥路996弄161之3-4,121.420854,31.193426000000002
1346,快客便利店(东宝兴路),021-56625145,虹口区,东宝兴路853-855,121.474078,31.264207
1347,快客便利店(江西北路),021-62508263,虹口区,四川北路71号韩国购物中心,121.483791,31.245614
1348,快客便利店(物华路),021-65156264,虹口区,物华路147,121.49511000000001,31.260766999999998
1349,快客便利店(方斜路),021-63450597,黄浦区,方斜路555-557,121.482768,31.213034999999998
1350,快客便利店(淮海东路),021-63111335,黄浦区,淮海东路48-50,121.482003,31.226456
1351,快客便利店(东方苑办公楼西),021-63773586,黄浦区,陆家浜路1070,121.48817700000001,31.21179
1352,快客便利店(金山区朱泾社区卫生服务中心南),021-57320306,金山区,罗星南路578,121.16954199999999,30.890682
1353,快客便利店(巨鹿路),021-62790882,静安区,巨鹿路616-1,121.45402800000001,31.221158000000003
1354,快客便利店(康定商务楼西北),021-52130146,静安区,康定路463,121.447673,31.233759000000003
1355,快客便利店(如家快捷酒店南),,闵行区,莲花路1328号,121.396371,31.157396999999996
1356,快客便利店,021-58071130,浦东新区,新城东路95,121.828303,30.900731
1357,快客便利店,021-58000298,浦东新区,环湖西一路467,121.926572,30.899439
1358,快客便利店(靖海路),021-68036603,浦东新区,靖海南路69,121.76825900000001,31.040176000000002
1359,快客便利店(友林路),,浦东新区,栖山路1735-6,121.56875,31.259419
1360,快客便利店(泰来坊东北),021-62665243,普陀区,江宁路1357,121.441207,31.246426
1361,快客便利店(白兰路),021-32556365,普陀区,中山北路3058-C,121.41431100000001,31.236515999999998
1362,快客便利店(洛川路),021-56097232,普陀区,洛川路147,121.442167,31.262038
1363,快客便利店(丹巴路),021-32500086,普陀区,丹巴路28弄36号旭辉世纪广场6号楼105室,121.381781,31.222375
1364,快客便利店(武宁路200弄小区东北),021-52904124,普陀区,武宁路200弄70号,121.423468,31.240851
1365,快客便利店(南淀浦河路),021-33863430,青浦区,外青松公路6999弄100,121.1279,31.139764000000003
1366,快客便利店(文涵路),,松江区,文涵路682,121.186652,31.036407
1367,快客便利店(南部阳光翠庭西北),,松江区,江学路788弄68号,121.214184,31.038355
1368,快客便利店(绅居商务酒店西北),021-57757489,松江区,新松江路1292弄35号,121.211372,31.042423
1369,快客便利店(东湖路),021-54670054,徐汇区,东湖路9,121.453749,31.216157
1370,快客便利店(汇成宾阳苑北),021-64708134,徐汇区,宾阳路9-3,121.436775,31.163463
1371,快客便利店(鞍山七村小区南),021-65638092,杨浦区,大连路1532,121.50506299999999,31.27202
1372,快客便利店(秣陵路),021-65876308,闸北区,秣陵路55,121.459033,31.247833
1373,快客便利店(浦驰路),021-34503003,闵行区,浦驰路365,121.50148899999999,31.077369
1374,快客便利店(七星商务楼西),021-54736731,闵行区,七莘路182号30幢101,121.377806,31.112026
1375,快客便利店(都林嘉苑北园西南),021-58322526,浦东新区,杨南路1116,121.509403,31.152558000000003
1376,快客便利店(铜川路),021-62971038,普陀区,铜川路1180,121.398926,31.250994
1377,快客便利店,021-69195613,普陀区,梅岭南路161号,121.407598,31.233678
1378,快客便利店(罗秀二村西),021-64778302,徐汇区,罗秀路280,121.444775,31.133415999999997
1379,快客便利店(和平小区西南),021-64541997,徐汇区,罗秀路938,121.43073100000001,31.131046
1380,快客便利店(杨鑫路),021-66760335,宝山区,杨鑫路344,121.44100300000001,31.367860999999998
1381,快客(福良店),021-69167492,嘉定区,福海路383-387号(南苑新村南),121.24748899999999,31.366818
1382,快客便利店(樱花路),021-68453174,浦东新区,樱花路487,121.55364399999999,31.206602
1383,快客便利店(高陵路),,普陀区,桃浦路942,121.384121,31.260534999999997
1384,快客便利店,,浦东新区,梅花路229,121.76031200000001,31.052912
1385,快客便利店(金顺小区西),021-68363332,浦东新区,下南路987,121.53589099999999,31.18279
1386,快客便利店(上浦路),021-58411113,浦东新区,上浦路195,121.49265700000001,31.145553999999997
1387,快客便利店(海阳路),021-58321675,浦东新区,海阳路405,121.491671,31.154473
1388,快客(板泉路),,浦东新区,板泉路2136号1层,121.532417,31.166930999999998
1389,快客便利店(韶梦酒店北),,浦东新区,南六公路190,121.715326,31.043671999999997
1390,快客便利店(繁兴路),021-51753203,闵行区,诸翟镇,121.38170900000001,31.112813
1391,快客(喜泰店),021-54352934,徐汇区,喜泰路9号(龙水南路喜泰路),121.452277,31.153221000000002
1392,快客便利店(青年路),021-64790893,闵行区,青年路143,121.354774,31.154602
1393,快客便利店(闵行区卫生局卫生监督所七宝分所东北),021-64791261,闵行区,七莘路2938弄30号,121.353466,31.151518
1394,快客便利店(川沙路),021-20250115,浦东新区,川沙路1051,121.67611299999999,31.264989
1395,快客便利店(长江南路),021-36046782,宝山区,长江南路939号(长江南路与通南路交口东北),121.479579,31.341023999999997
1396,快客便利店(桂林社区卫生服务站西),021-64950190,徐汇区,钦州北路1008-1,121.409769,31.180181
1397,快客便利店(钦州北路),,徐汇区,虹梅路,121.402521,31.1619
1398,快客(古羊路店),021-54778930,长宁区,古羊路613号,121.405432,31.191508000000002
1399,快客便利店(古城公寓西南),021-62091987,长宁区,宋园路48-1,121.41363,31.193609999999996
1400,快客便利店(星华公路),021-59137197,嘉定区,星华公路1639-1641,121.30478899999999,31.256140000000002
1401,快客便利店(航中路),021-33501972,闵行区,航中路,121.35378999999999,31.166071000000002
1402,快客(新航店),021-54472258,闵行区,航新路60号(航南路航新路),121.350751,31.165853000000002
1403,快客便利店(局三小区东),021-63133175,黄浦区,制造局路679,121.485611,31.201581
1404,快客便利店(唐镇路),,浦东新区,唐镇路324,121.652332,31.208971999999996
1405,快客便利店(祁连山路),021-56435291,普陀区,祁连山路15号,121.37621999999999,31.27226
1406,快客便利店(北方购物广场东),021-66082728,普陀区,真南路1051弄2号楼107室,121.379208,31.270761
1407,快客便利店(红十字护理院西北),,宝山区,龙镇路7弄19-3,121.43121799999999,31.417215999999996
1408,快客便利店(凌兆路),021-65879438,浦东新区,凌兆路135,121.493788,31.1418
1409,快客便利店(凌兆三村南),021-58416327,浦东新区,凌兆路535-2号附近,121.49373200000001,31.141787
1410,快客便利店(民强路),021-57686615,松江区,民强路1535号附近,121.28986100000002,31.038889
1411,快客便利店(黄石路),021-54352764,徐汇区,黄石路1-9,121.450106,31.157155
1412,快客便利店(鑫龙苑西北),021-54355402,徐汇区,石龙路35号,121.447477,31.158053999999996
1413,快客便利店(东泉路),,徐汇区,东泉路186,121.445242,31.154155
1414,快客便利店(石龙路),021-54112528,徐汇区,石龙路123,121.44311299999998,31.156834999999997
1415,快客便利店(中共吴淞社区西南),021-65876308,宝山区,淞滨路381,121.493803,31.372451
1416,快客便利店(浦城路),021-58780271,浦东新区,浦城路594-1,121.514257,31.224542
1417,快客便利店(东昌路),021-65876308,浦东新区,东昌路533,121.512253,31.232753999999996
1418,快客(文婷店),021-52655125,普陀区,中江路839号申汉大厦1层827号,121.39157,31.231903999999997
1419,快客(斜土路店),13661925635,徐汇区,斜土路2584,121.444103,31.187653000000005
1420,快客便利店(虹中路),021-64063093,闵行区,吴中路1050号虹桥亚繁广场6幢105室,121.38691299999999,31.178528999999997
1421,快客(真南店),,普陀区,真南路85弄13号,121.397136,31.266053000000003
1422,快客(车站店),021-52850278,普陀区,桃浦路91号(车站新村小区北),121.401789,31.261492999999998
1423,快客便利店(柏宏大厦西南),021-65600829,虹口区,曲阳路789-2,121.490494,31.290086
1424,快客便利店(丝绸之路大饭店西南),021-65879438,虹口区,东体育会路1097-1,121.489938,31.287762
1425,快客便利店(塘南小区南),021-65876308,浦东新区,东三里桥路11,121.507908,31.199961
1426,快客便利店(金桥馨苑西北),021-68510507,浦东新区,长岛路1510,121.59523100000001,31.26203
1427,快客便利店(永德坊东北),021-65403371,虹口区,西江湾路570,121.47997,31.274078000000003
1428,快客(铜川路),,普陀区,铜川路1026号,121.40219599999999,31.250840999999998
1429,快客便利店(灵石路),021-66311057,闸北区,灵石路522,121.450377,31.283210999999998
1430,快客便利店(东方希望大厦西),021-58308569,浦东新区,世纪大道1777号东方希望大厦,121.53796000000001,31.223314000000002
1431,快客便利店(金桥好人家南),021-68713990,浦东新区,博兴路951,121.59303200000001,31.265960999999997
1432,快客(锦昌店),,普陀区,昌化路826-3号,121.44625400000001,31.24322
1433,快客(密山店),021-56608263,宝山区,密山路101-105号,121.48056100000001,31.401788
1434,快客(富强街店),021-54850034,闵行区,富强街28-17号,121.36034099999999,31.154398999999998
1435,快客便利店(贤居苑北),021-58906417,浦东新区,进贤路406号,121.69193700000001,31.192860999999997
1436,快客便利店(新南街),021-57645079,松江区,新桥镇,121.315506,31.05988
1437,快客便利店(中华路),021-63301610,黄浦区,中华路67,121.497658,31.224003999999997
1438,快客便利店(众众家园北区),,闵行区,莘建东路396,121.38297,31.110398999999997
1439,快客便利店(碧泉路),021-54178128,闵行区,碧泉路43,121.382861,31.111164000000002
1440,快客便利店(京江路),021-56638049,闸北区,京江路212,121.46398400000001,31.248445
1441,快客便利店(泛欧现代大厦东),18217156508,闸北区,共和新路2451,121.45283899999998,31.280944
1442,快客便利店(名都路),021-54156434,闵行区,名都路82,121.390831,31.106764000000002
1443,快客便利店(源深路),,浦东新区,源深路178,121.530254,31.238845
1444,快客便利店(沪东新村街道社区管理委员会西北),,浦东新区,博兴路325-327,121.580574,31.268684999999998
1445,快客便利店(沪南小区东北),,浦东新区,博兴路246,121.579811,31.268846999999997
1446,快客便利店(华容路),021-64561463,徐汇区,华容路89,121.451008,31.180209
1447,快客便利店(宝钢宝林二村南),,宝山区,宝林路261,121.48812099999999,31.401719
1448,快客(美乐店),,闵行区,古美街道古美路1010号1层,121.40223700000001,31.152363
1449,快客便利店(蓝城小区东),021-50341340,浦东新区,柳埠路130,121.58199599999999,31.262704
1450,快客(中兴店),021-56637115,静安区,中兴路1404号(三兴小区西北),121.46030400000001,31.25185
1451,快客便利店(民主路),021-54861482,闵行区,民主路82,121.351371,31.155649
1452,快客便利店(嘉丽苑北),021-64788549,闵行区,七宝镇,121.351368,31.157657
1453,快客便利店(古美西路),021-64142088,闵行区,古美西路194,121.39882800000001,31.134608
1454,快客便利店(胜辛社区卫生服务站东南),021-69961173,嘉定区,裕民路1172,121.235961,31.365671000000003
1455,快客便利店(邯郸路),021-65520734,虹口区,曲阳路982-1,121.490702,31.291690000000003
1456,快客便利店(柳青路),,嘉定区,吴杨路155,121.295511,31.268597999999997
1457,快客便利店(祥和家园东北),021-52763499,普陀区,真光路1459,121.38286000000001,31.246933000000002
1458,快客便利店(延安东路店),021-63275376,黄浦区,延安东路1060,121.474979,31.227185
1459,快客便利店(华安公寓东北),021-54891738,徐汇区,龙华路1831-2,121.45613600000001,31.186526
1460,快客便利店(平顺路),021-56813556,闸北区,平顺路182-3,121.45251599999999,31.31183
1461,快客便利店(江川社区卫生服务中心碧江分中心东南),021-54724219,闵行区,碧江路,121.401054,31.01134
1462,快客便利店(长临路),,宝山区,长临路800-3,121.435901,31.322740000000003
1463,快客便利店(汇秀公寓东北),021-56753059,宝山区,长江西路2002-2004,121.43470500000001,31.32872
1464,快客(高行店),021-58651239,浦东新区,高行复兴路119弄46号,121.608994,31.295796999999997
1465,快客便利店(柳州路),021-64843685,徐汇区,柳州路595之2-3,121.42068300000001,31.178243
1466,快客(国庠路),021-55233189,杨浦区,五角场镇国庠路28号,121.51813999999999,31.302169
1467,快客(洛有店),021-56091928,静安区,洛川中路1150号111室,121.447728,31.263324
1468,快客便利店(御桥店),021-50839412,浦东新区,御桥路306弄1号,121.536368,31.149653000000004
1469,快客便利店(义合坊东南),021-62826436,徐汇区,广元路200-1,121.438073,31.198735
1470,快客便利店(洛川中路1100弄1-63号小区东南),021-65876308,闸北区,洛川中路1100弄55,121.44993999999998,31.262938000000002
1471,快客(罗阳路店),021-54390566,闵行区,罗阳路259-3号,121.40914699999999,31.124537
1472,快客便利店(黄兴路),021-55050029,杨浦区,黄兴路2001号南室,121.518694,31.293020000000002
1473,快客便利店(虹淞大厦东),021-34308169,闵行区,虹井路185号,121.370273,31.174883
1474,快客便利店(西林南路),,松江区,西林南路99弄63,121.22258300000001,31.005996999999997
1475,快客(天北店),021-52181613,长宁区,天山西路86号(北渔路天山西路),121.37406399999999,31.216873
1476,快客便利店(泉口路),,长宁区,泉口路106-1号,121.370552,31.212875
1477,快客便利店(宝平店),021-65214531,虹口区,四平路792,121.500166,31.273290000000003
1478,快客便利店(云雅路),,浦东新区,云雅路389,121.67835,31.24338
1479,快客(泉口店),021-62415944,长宁区,北渔路108之1-2,121.37258999999999,31.215290000000003
1480,快客便利店(虹古路),021-62620465,长宁区,虹古路417弄1号103室,121.38663000000001,31.203588
1481,快客便利店(乍浦路店),021-63090253,虹口区,乍浦路342,121.48695500000001,31.250162
1482,快客便利店(长江公寓西南),021-63722527,黄浦区,凤阳路282,121.47062,31.233967
1483,快客便利店(方浜西路),021-63366863,黄浦区,方浜西路32-36,121.48306799999999,31.221498999999998
1484,快客便利店(南仓街),,黄浦区,陆家浜路305弄102室,121.50048000000001,31.212613
1485,快客便利店(凝和路),,黄浦区,凝和路140号,121.493614,31.217163
1486,快客便利店(园景苑东北),,黄浦区,陆家浜路1390,121.48244299999999,31.211244
1487,快客便利店(三牌楼路),021-53580305,黄浦区,三牌楼路65,121.492446,31.223527
1488,快客便利店(成都店),021-63401781,静安区,成都北路139号,121.46705800000001,31.226440999999998
1489,快客(中兴路店),,静安区,西藏北路532号(虬江路西藏北路),121.46976000000001,31.250099
1490,快客便利店(林邨东),021-62793713,静安区,威海路898,121.45518600000001,31.224517
1491,快客便利店(宝鼎大厦西南),,卢湾区,徐家汇路550-4,121.470366,31.205996999999996
1492,快客便利店(泰康路),021-64679491,卢湾区,泰康路8-8,121.47161799999999,31.208392
1493,快客便利店(自忠路),021-53823995,卢湾区,自忠路41-43,121.480798,31.220198
1494,快客便利店(虹梅路),021-54580934,闵行区,虹梅路3333号,121.38396499999999,31.188404
1495,快客便利店(春申城华丽家园东南),,闵行区,腾冲路300,121.394702,31.101621999999995
1496,快客便利店(春申新村东北),021-54152398,闵行区,莘庄镇,121.37030700000001,31.121160999999997
1497,快客便利店(博佳花园西北),021-68037393,浦东新区,惠南镇城南路39-2号,121.74393700000002,31.040626
1498,快客便利店(东旺名苑东北),021-58328280,浦东新区,海阳路980,121.505284,31.157871999999998
1499,快客便利店(曹杨路),021-65876308,普陀区,曹杨路916,121.41128300000001,31.242141999999998
1500,快客便利店(永嘉路),,徐汇区,永嘉路211,121.461367,31.209972999999998
1501,快客便利店(康泉公寓西南),021-56438985,闸北区,三泉路768-3,121.441056,31.314888
1502,快客便利店(民德路),021-56632975,闸北区,虬江路1134,121.47109499999999,31.250548
1503,快客便利店(蒙古路),021-63805358,闸北区,蒙古路75,121.469567,31.243207
1504,快客便利店(虹桥村王前小区南),,闵行区,虹中路99号07号,121.385144,31.179409999999997
1505,快客便利店(平凉小区西北),021-65879438,杨浦区,平凉路2753,121.556774,31.277984000000004
1506,快客便利店(汶水东路),021-55388581,虹口区,汶水东路533,121.479372,31.289889000000002
1507,快客便利店(中星凉城西苑西北),021-65282747,虹口区,奎照路784,121.46938,31.300089
1508,快客便利店(湘府花园西北),021-54774964,闵行区,吴中路431-3,121.40938100000001,31.185245000000002
1509,快客便利店(怒江北路),021-52820577,普陀区,怒江北路394-已,121.389478,31.236136
1510,快客便利店(万千大厦西北),021-52919023,普陀区,中山北路2139弄50,121.428675,31.247953000000003
1511,快客便利店(辽源一村南),021-65024265,杨浦区,辽源西路280,121.508168,31.268618
1512,快客便利店(四平路),021-55678598,杨浦区,四平路2083,121.51246200000001,31.294189000000003
1513,快客便利店(南天大厦北),021-62268976,长宁区,定西路1316,121.422634,31.216107
1514,快客便利店(天宝华庭北),021-65073598,虹口区,四平路幸福村,121.497317,31.273459999999996
1515,快客便利店(斜土路330弄小区西北),021-65876308,卢湾区,斜土路338-5,121.479201,31.204588
1516,快客便利店(中山北路),021-62047729,普陀区,中山北路2336-1,121.426575,31.245181
1517,快客便利店(海兴广场北),,黄浦区,肇嘉浜路4-1,121.466924,31.205351
1518,快客便利店(瑞宁路),,徐汇区,瑞宁路1号,121.47053000000001,31.190029
1519,快客便利店(上海仲裁委员会闵行国际仲裁中心东南),,闵行区,莘东路315-6,121.376019,31.109861
1520,快客(秀忠店),,徐汇区,罗秀路711-6号,121.435294,31.131474
1521,快客便利店(兴东佳苑西南),,浦东新区,梅花路229号,121.76031200000001,31.052912
1522,快客便利店(人民东路),,浦东新区,人民东路3052,121.75979099999999,31.049215000000004
1523,快客便利店(金峯大厦南),,闸北区,恒丰路13号,121.458368,31.239626
1524,快客便利店(国权路336弄小区西南),,杨浦区,国权路332,121.50808700000002,31.290627
1525,快客便利店(商城路),,浦东新区,商城路301号-5,121.510481,31.229184999999998
1526,快客便利店,021-65520734,虹口区,曲阳路982号,121.490684,31.29171
1527,快客便利店,,虹口区,曲阳路街道曲阳路789号豪门公馆,121.49054699999999,31.290315999999997
1528,快客便利店,,嘉定区,平城路1455号,121.235505,31.389148
1529,快客便利店,19921867871,闵行区,虹井路610号,121.36959399999999,31.183023
1530,快客便利店,,闵行区,颛桥镇颛兴东路1313号,121.417498,31.073622999999998
1531,快客便利店,13395982782,浦东新区,申江南路7333号,121.65329799999999,31.039664000000002
